locality,postal_code,district,province,province_int,region,region_int,district_int,ratio_free_build
Saint-Gilles,1060,Bruxelles-Capitale,bruxelles-capitale,3,bruxelles-capitale,2,30,-3.458745080839866
Molenbeek-Saint-Jean,1080,Bruxelles-Capitale,bruxelles-capitale,3,bruxelles-capitale,2,30,-3.036240582144672
Ganshoren,1083,Bruxelles-Capitale,bruxelles-capitale,3,bruxelles-capitale,2,30,-3.1290928968687233
Bruxelles,1120,Bruxelles-Capitale,bruxelles-capitale,3,bruxelles-capitale,2,30,-2.581414936244784
Wavre,1300,Nivelles,brabant-wallon,8,wallonie,1,4,-2.9218088410811247
Wavre,1301,Nivelles,brabant-wallon,8,wallonie,1,4,-2.9218088410811247
Beauvechain,1320,Nivelles,brabant-wallon,8,wallonie,1,4,-1.8218111190892874
Ottignies-Louvain-la-Neuve,1340,Nivelles,brabant-wallon,8,wallonie,1,4,-2.670084035741534
Ottignies-Louvain-la-Neuve,1348,Nivelles,brabant-wallon,8,wallonie,1,4,-2.670084035741534
Orp-Jauche,1350,Nivelles,brabant-wallon,8,wallonie,1,4,-1.75001510626352
Hélécine,1357,Nivelles,brabant-wallon,8,wallonie,1,4,-1.6364234387896852
Ramillies,1367,Nivelles,brabant-wallon,8,wallonie,1,4,-1.616334573907662
Grez-Doiceau,1390,Nivelles,brabant-wallon,8,wallonie,1,4,-2.2314836577553936
Braine-l'Alleud,1420,Nivelles,brabant-wallon,8,wallonie,1,4,-2.6454629655921007
Braine-le-Château,1440,Nivelles,brabant-wallon,8,wallonie,1,4,-2.545526954436051
Chastre,1450,Nivelles,brabant-wallon,8,wallonie,1,4,-2.0417026984240287
Walhain,1457,Nivelles,brabant-wallon,8,wallonie,1,4,-1.9021991216830847
Ittre,1460,Nivelles,brabant-wallon,8,wallonie,1,4,-1.8688155203534396
Genappe,1471,Nivelles,brabant-wallon,8,wallonie,1,4,-1.8039701322182824
Tubize,1480,Nivelles,brabant-wallon,8,wallonie,1,4,-2.4278419790594796
Herstappe,3717,Tongres,limbourg,7,flandre,0,7,-1.4443246009938038
Fourons,3790,Tongres,limbourg,7,flandre,0,7,-0.9351409747692409
Fourons,3792,Tongres,limbourg,7,flandre,0,7,-0.9351409747692409
Fourons,3793,Tongres,limbourg,7,flandre,0,7,-0.9351409747692409
Liège,4031,Liège,liege,4,wallonie,1,3,-2.830604864273826
Herstal,4041,Liège,liege,4,wallonie,1,3,-2.7658988954072066
Seraing,4102,Liège,liege,4,wallonie,1,3,-2.719015898762852
Neupré,4120,Liège,liege,4,wallonie,1,3,-2.478162615058977
Anthisnes,4162,Huy,liege,4,wallonie,1,15,-1.3751862137186448
Comblain-au-Pont,4170,Liège,liege,4,wallonie,1,3,-1.466137406098108
Ferrières,4190,Huy,liege,4,wallonie,1,15,-1.3059878142093486
Héron,4217,Huy,liege,4,wallonie,1,15,-1.7586485480960716
Geer,4250,Waremme,liege,4,wallonie,1,14,-1.771854215207943
Braives,4260,Waremme,liege,4,wallonie,1,14,-1.691391228921149
Hannut,4280,Waremme,liege,4,wallonie,1,14,-1.7398038501131425
Waremme,4300,Waremme,liege,4,wallonie,1,14,-2.160488066184539
Faimes,4317,Waremme,liege,4,wallonie,1,14,-1.710416636255583
Awans,4340,Liège,liege,4,wallonie,1,3,-2.121633763763048
Awans,4342,Liège,liege,4,wallonie,1,3,-2.121633763763048
Fexhe-le-Haut-Clocher,4347,Waremme,liege,4,wallonie,1,14,-1.6105508338528032
Remicourt,4350,Waremme,liege,4,wallonie,1,14,-1.9193357307822263
Donceel,4357,Waremme,liege,4,wallonie,1,14,-1.4869715083246906
Oreye,4360,Waremme,liege,4,wallonie,1,14,-1.8297102989173717
Crisnée,4367,Waremme,liege,4,wallonie,1,14,-1.8268803675647545
Flémalle,4400,Liège,liege,4,wallonie,1,3,-2.4830741956565654
Saint-Nicolas,4420,Liège,liege,4,wallonie,1,3,-3.2589752037614583
Juprelle,4450,Liège,liege,4,wallonie,1,3,-1.9128490728370573
Juprelle,4453,Liège,liege,4,wallonie,1,3,-1.9128490728370573
Grâce-Hollogne,4460,Liège,liege,4,wallonie,1,3,-2.2158428813720983
Huy,4500,Huy,liege,4,wallonie,1,15,-2.1119851124813955
Wanze,4520,Huy,liege,4,wallonie,1,15,-2.2322962575198777
Villers-le-Bouillet,4530,Huy,liege,4,wallonie,1,15,-1.9584275838448095
Verlaine,4537,Huy,liege,4,wallonie,1,15,-1.9069217469422715
Amay,4540,Huy,liege,4,wallonie,1,15,-2.4397791740837698
Nandrin,4550,Huy,liege,4,wallonie,1,15,-1.9699260075801024
Tinlot,4557,Huy,liege,4,wallonie,1,15,-1.0160531254868872
Clavier,4560,Huy,liege,4,wallonie,1,15,-0.838521739283722
Marchin,4570,Huy,liege,4,wallonie,1,15,-1.9208493112653575
Ouffet,4590,Huy,liege,4,wallonie,1,15,-0.8464041087221482
Visé,4600,Liège,liege,4,wallonie,1,3,-2.22863580488391
Dalhem,4607,Liège,liege,4,wallonie,1,3,-1.8096120973940113
Beyne-Heusay,4610,Liège,liege,4,wallonie,1,3,-3.1123513938360716
Soumagne,4630,Liège,liege,4,wallonie,1,3,-2.6133575280061447
Herve,4651,Verviers,liege,4,wallonie,1,5,-1.9894992082644871
Herve,4653,Verviers,liege,4,wallonie,1,5,-1.9894992082644871
Blegny,4670,Liège,liege,4,wallonie,1,3,-2.5039107182997635
Blegny,4671,Liège,liege,4,wallonie,1,3,-2.5039107182997635
Oupeye,4680,Liège,liege,4,wallonie,1,3,-2.3624307517636445
Oupeye,4682,Liège,liege,4,wallonie,1,3,-2.3624307517636445
Bassenge,4690,Liège,liege,4,wallonie,1,3,-1.5733725095266853
Lontzen,4710,Verviers,liege,4,wallonie,1,5,-1.5607384590697229
Lontzen,4711,Verviers,liege,4,wallonie,1,5,-1.5607384590697229
Raeren,4730,Verviers,liege,4,wallonie,1,5,-1.2674240912039443
Butgenbach,4750,Verviers,liege,4,wallonie,1,5,-0.5616472874693418
Amblève,4770,Verviers,liege,4,wallonie,1,5,-0.4482983142048989
Burg-Reuland,4791,Verviers,liege,4,wallonie,1,5,-0.2846583064939332
Florenville,4800,Virton,luxembourg,10,wallonie,1,23,-0.0899509983235087
Verviers,4801,Verviers,liege,4,wallonie,1,5,-2.838255646959387
Limbourg,4831,Verviers,liege,4,wallonie,1,5,-1.5240509421762134
Welkenraedt,4840,Verviers,liege,4,wallonie,1,5,-1.9304831549846726
Plombières,4850,Verviers,liege,4,wallonie,1,5,-1.519895895888827
Pepinster,4860,Verviers,liege,4,wallonie,1,5,-1.9121947215803041
Trooz,4870,Verviers,liege,4,wallonie,1,5,-2.0622293170746264
Olne,4877,Verviers,liege,4,wallonie,1,5,-2.168647567641908
Thimister-Clermont,4890,Verviers,liege,4,wallonie,1,5,-1.7754216392913857
Aywaille,4920,Liège,liege,4,wallonie,1,3,-1.458539100686585
Waimes,4950,Verviers,liege,4,wallonie,1,5,-1.0216072843708939
Malmedy,4960,Verviers,liege,4,wallonie,1,5,-1.1483687606644406
Stavelot,4970,Verviers,liege,4,wallonie,1,5,-0.9385878179471917
Stoumont,4987,Verviers,liege,4,wallonie,1,5,-0.32571592014833073
Namur,5000,Namur,namur,9,wallonie,1,1,-2.5327944470916157
Namur,5002,Namur,namur,9,wallonie,1,1,-2.5327944470916157
Namur,5003,Namur,namur,9,wallonie,1,1,-2.5327944470916157
Namur,5020,Namur,namur,9,wallonie,1,1,-2.5327944470916157
Gembloux,5030,Namur,namur,9,wallonie,1,1,-1.8430707953448877
Gembloux,5032,Namur,namur,9,wallonie,1,1,-1.8430707953448877
Sambreville,5060,Namur,namur,9,wallonie,1,1,-2.6735700186000035
Fosses-la-Ville,5070,Namur,namur,9,wallonie,1,1,-1.6160928739551446
La Bruyère,5080,Namur,namur,9,wallonie,1,1,-1.8521203240228066
La Bruyère,5081,Namur,namur,9,wallonie,1,1,-1.8521203240228066
Namur,5100,Namur,namur,9,wallonie,1,1,-2.5327944470916157
Namur,5101,Namur,namur,9,wallonie,1,1,-2.5327944470916157
Sombreffe,5140,Namur,namur,9,wallonie,1,1,-1.8391468133022202
Floreffe,5150,Namur,namur,9,wallonie,1,1,-1.9946509790310436
Jemeppe-sur-Sambre,5190,Namur,namur,9,wallonie,1,1,-2.3462197026743064
Andenne,5300,Namur,namur,9,wallonie,1,1,-1.977658938944886
Éghezée,5310,Namur,namur,9,wallonie,1,1,-1.6811554812515725
Assesse,5330,Namur,namur,9,wallonie,1,1,-1.2489609259601868
Assesse,5333,Namur,namur,9,wallonie,1,1,-1.2489609259601868
Gesves,5340,Namur,namur,9,wallonie,1,1,-1.636538776098969
Ohey,5350,Namur,namur,9,wallonie,1,1,-1.3071651820119745
Hamois,5361,Dinant,namur,9,wallonie,1,0,-1.17771644129925
Havelange,5370,Dinant,namur,9,wallonie,1,0,-0.6591383447839794
Somme-Leuze,5377,Dinant,namur,9,wallonie,1,0,-0.971261756906593
Fernelmont,5380,Namur,namur,9,wallonie,1,1,-1.4670660067469212
Dinant,5503,Dinant,namur,9,wallonie,1,0,-1.0807499136483643
Yvoir,5530,Dinant,namur,9,wallonie,1,0,-1.706653017967613
Anhée,5537,Dinant,namur,9,wallonie,1,0,-1.1732651724191623
Hastière,5540,Dinant,namur,9,wallonie,1,0,-0.9758937217554582
Vresse-sur-Semois,5550,Dinant,namur,9,wallonie,1,0,0.0
Bièvre,5555,Dinant,namur,9,wallonie,1,0,-0.19825915957678358
Houyet,5560,Dinant,namur,9,wallonie,1,0,-0.3634611181692135
Houyet,5561,Dinant,namur,9,wallonie,1,0,-0.3634611181692135
Houyet,5562,Dinant,namur,9,wallonie,1,0,-0.3634611181692135
Beauraing,5570,Dinant,namur,9,wallonie,1,0,-0.5319539220930115
Beauraing,5571,Dinant,namur,9,wallonie,1,0,-0.5319539220930115
Beauraing,5573,Dinant,namur,9,wallonie,1,0,-0.5319539220930115
Beauraing,5574,Dinant,namur,9,wallonie,1,0,-0.5319539220930115
Rochefort,5580,Dinant,namur,9,wallonie,1,0,-0.833484582318772
Ciney,5590,Dinant,namur,9,wallonie,1,0,-1.058499351299206
Philippeville,5600,Philippeville,namur,9,wallonie,1,12,-0.43282154415413676
Stoumont,5600,Verviers,liege,4,wallonie,1,5,-0.32571592014833073
Florennes,5620,Philippeville,namur,9,wallonie,1,12,-0.8073678814089904
Cerfontaine,5630,Philippeville,namur,9,wallonie,1,12,-0.5255219644737887
Mettet,5640,Namur,namur,9,wallonie,1,1,-1.2780359386790945
Mettet,5644,Namur,namur,9,wallonie,1,1,-1.2780359386790945
Walcourt,5651,Philippeville,namur,9,wallonie,1,12,-1.4692845886998764
Couvin,5660,Philippeville,namur,9,wallonie,1,12,-0.6513604048435633
Viroinval,5670,Philippeville,namur,9,wallonie,1,12,-0.05601498661239675
Charleroi,6010,Charleroi,hainaut,6,wallonie,1,21,-2.8855335437554714
Charleroi,6043,Charleroi,hainaut,6,wallonie,1,21,-2.8855335437554714
Charleroi,6060,Charleroi,hainaut,6,wallonie,1,21,-2.8855335437554714
Charleroi,6061,Charleroi,hainaut,6,wallonie,1,21,-2.8855335437554714
Fontaine-l'Évêque,6141,Charleroi,hainaut,6,wallonie,1,21,-2.3149898960228175
Courcelles,6182,Charleroi,hainaut,6,wallonie,1,21,-2.393312970283998
Courcelles,6183,Charleroi,hainaut,6,wallonie,1,21,-2.393312970283998
Les Bons Villers,6210,Charleroi,hainaut,6,wallonie,1,21,-1.752169073438321
Fleurus,6223,Charleroi,hainaut,6,wallonie,1,21,-1.8099311284986277
Pont-à-Celles,6230,Charleroi,hainaut,6,wallonie,1,21,-1.8872884324879926
Farciennes,6240,Charleroi,hainaut,6,wallonie,1,21,-2.5149838946832443
Aiseau-Presles,6250,Charleroi,hainaut,6,wallonie,1,21,-2.268010464854944
Froidchapelle,6440,Thuin,hainaut,6,wallonie,1,18,-0.34745327854100083
Chimay,6460,Thuin,hainaut,6,wallonie,1,18,-0.4279792133148156
Chimay,6464,Thuin,hainaut,6,wallonie,1,18,-0.4279792133148156
Beaumont,6500,Thuin,hainaut,6,wallonie,1,18,-0.8184459659187443
Thuin,6536,Thuin,hainaut,6,wallonie,1,18,-1.5349956674448335
Lobbes,6540,Thuin,hainaut,6,wallonie,1,18,-1.7110553747518567
Erquelinnes,6560,Thuin,hainaut,6,wallonie,1,18,-1.5081828715796126
Merbes-le-Château,6567,Thuin,hainaut,6,wallonie,1,18,-1.1998990172483035
Momignies,6593,Thuin,hainaut,6,wallonie,1,18,-0.947555703325512
Momignies,6594,Thuin,hainaut,6,wallonie,1,18,-0.947555703325512
Momignies,6596,Thuin,hainaut,6,wallonie,1,18,-0.947555703325512
Bastogne,6600,Bastogne,luxembourg,10,wallonie,1,31,-0.8750997166146313
Fauvillers,6637,Bastogne,luxembourg,10,wallonie,1,31,-0.20557142580753798
Vaux-sur-Sûre,6640,Bastogne,luxembourg,10,wallonie,1,31,-0.4813873636966113
Houffalize,6662,Bastogne,luxembourg,10,wallonie,1,31,-0.3667708615461336
Gouvy,6673,Bastogne,luxembourg,10,wallonie,1,31,-0.305068953701205
Vielsalm,6690,Bastogne,luxembourg,10,wallonie,1,31,-0.6367638126281108
Arlon,6700,Arlon,luxembourg,10,wallonie,1,39,-1.5638984102976647
Arlon,6704,Arlon,luxembourg,10,wallonie,1,39,-1.5638984102976647
Tintigny,6730,Virton,luxembourg,10,wallonie,1,23,-0.4459099096510565
Étalle,6742,Virton,luxembourg,10,wallonie,1,23,-0.7725383952962527
Saint-Léger,6747,Virton,luxembourg,10,wallonie,1,23,-0.8939041690908779
Virton,6760,Virton,luxembourg,10,wallonie,1,23,-1.0168362524879784
Virton,6761,Virton,luxembourg,10,wallonie,1,23,-1.0168362524879784
Rouvroy,6767,Virton,luxembourg,10,wallonie,1,23,-0.7625628479052495
Meix-devant-Virton,6769,Virton,luxembourg,10,wallonie,1,23,-0.4614919878942697
Messancy,6780,Arlon,luxembourg,10,wallonie,1,39,-1.3602421950364578
Chiny,6812,Virton,luxembourg,10,wallonie,1,23,-0.3118550232096052
Florenville,6820,Virton,luxembourg,10,wallonie,1,23,-0.0899509983235087
Florenville,6821,Virton,luxembourg,10,wallonie,1,23,-0.0899509983235087
Florenville,6823,Virton,luxembourg,10,wallonie,1,23,-0.0899509983235087
Florenville,6824,Virton,luxembourg,10,wallonie,1,23,-0.0899509983235087
Bouillon,6836,Neufchâteau,luxembourg,10,wallonie,1,16,-0.1740603571589246
Neufchâteau,6840,Neufchâteau,luxembourg,10,wallonie,1,16,-0.6345164043787841
Paliseul,6856,Neufchâteau,luxembourg,10,wallonie,1,16,-0.5521365688854891
Léglise,6860,Neufchâteau,luxembourg,10,wallonie,1,16,-0.03490567827048661
Saint-Hubert,6870,Neufchâteau,luxembourg,10,wallonie,1,16,-0.3695218431005212
Bertrix,6880,Neufchâteau,luxembourg,10,wallonie,1,16,-0.562761599865961
Herbeumont,6887,Neufchâteau,luxembourg,10,wallonie,1,16,-0.10308681484899104
Libin,6890,Neufchâteau,luxembourg,10,wallonie,1,16,-0.41476218080434135
Wellin,6920,Neufchâteau,luxembourg,10,wallonie,1,16,-0.4603389501309099
Tellin,6927,Neufchâteau,luxembourg,10,wallonie,1,16,-0.3800116056945703
Daverdisse,6929,Neufchâteau,luxembourg,10,wallonie,1,16,-0.2310304042555481
Durbuy,6940,Marche-en-Famenne,luxembourg,10,wallonie,1,24,-1.2249118924570144
Durbuy,6941,Marche-en-Famenne,luxembourg,10,wallonie,1,24,-1.2249118924570144
Nassogne,6951,Marche-en-Famenne,luxembourg,10,wallonie,1,24,-0.5312299559524897
Nassogne,6953,Marche-en-Famenne,luxembourg,10,wallonie,1,24,-0.5312299559524897
Manhay,6960,Marche-en-Famenne,luxembourg,10,wallonie,1,24,-0.25058222367583255
Tenneville,6972,Marche-en-Famenne,luxembourg,10,wallonie,1,24,-0.3042060868417184
La Roche-en-Ardenne,6980,Marche-en-Famenne,luxembourg,10,wallonie,1,24,-0.16592298577206152
Hotton,6990,Marche-en-Famenne,luxembourg,10,wallonie,1,24,-1.0670785904001572
Mons,7020,Mons,hainaut,6,wallonie,1,11,-2.2921898083274823
Mons,7021,Mons,hainaut,6,wallonie,1,11,-2.2921898083274823
Mons,7024,Mons,hainaut,6,wallonie,1,11,-2.2921898083274823
Mons,7033,Mons,hainaut,6,wallonie,1,11,-2.2921898083274823
Jurbise,7050,Mons,hainaut,6,wallonie,1,11,-1.8990497072292774
Soignies,7060,Soignies,hainaut,6,wallonie,1,33,-1.7195300128355355
Le Rœulx,7070,Soignies,hainaut,6,wallonie,1,33,-1.706298610196098
Frameries,7080,Mons,hainaut,6,wallonie,1,11,-2.392015016235407
Braine-le-Comte,7090,Soignies,hainaut,6,wallonie,1,33,-1.6603509662155922
La Louvière,7100,La Louvière,hainaut,6,wallonie,1,32,-2.6808507968364728
La Louvière,7110,La Louvière,hainaut,6,wallonie,1,32,-2.6808507968364728
Binche,7133,La Louvière,hainaut,6,wallonie,1,32,-2.2326723569282567
Binche,7134,La Louvière,hainaut,6,wallonie,1,32,-2.2326723569282567
Seneffe,7180,Soignies,hainaut,6,wallonie,1,33,-1.4466274532296481
Écaussinnes,7190,Soignies,hainaut,6,wallonie,1,33,-1.7829504484631384
Boussu,7301,Mons,hainaut,6,wallonie,1,11,-2.531853272403469
Bernissart,7321,Ath,hainaut,6,wallonie,1,9,-1.999142412718913
Saint-Ghislain,7330,Mons,hainaut,6,wallonie,1,11,-2.033290225626708
Colfontaine,7340,Mons,hainaut,6,wallonie,1,11,-2.8870227656139145
Hensies,7350,Mons,hainaut,6,wallonie,1,11,-1.7179462159176047
Honnelles,7387,Mons,hainaut,6,wallonie,1,11,-1.4247266040458446
Tournai,7522,Tournai et Mouscron,hainaut,6,wallonie,1,6,-1.9648941690841963
Tournai,7533,Tournai et Mouscron,hainaut,6,wallonie,1,6,-1.9648941690841963
Tournai,7536,Tournai et Mouscron,hainaut,6,wallonie,1,6,-1.9648941690841963
Tournai,7538,Tournai et Mouscron,hainaut,6,wallonie,1,6,-1.9648941690841963
Tournai,7540,Tournai et Mouscron,hainaut,6,wallonie,1,6,-1.9648941690841963
Tournai,7543,Tournai et Mouscron,hainaut,6,wallonie,1,6,-1.9648941690841963
Péruwelz,7600,Tournai et Mouscron,hainaut,6,wallonie,1,6,-2.035568768762442
Péruwelz,7604,Tournai et Mouscron,hainaut,6,wallonie,1,6,-2.035568768762442
Péruwelz,7608,Tournai et Mouscron,hainaut,6,wallonie,1,6,-2.035568768762442
Brunehaut,7620,Tournai et Mouscron,hainaut,6,wallonie,1,6,-1.6111010651895912
Brunehaut,7621,Tournai et Mouscron,hainaut,6,wallonie,1,6,-1.6111010651895912
Brunehaut,7623,Tournai et Mouscron,hainaut,6,wallonie,1,6,-1.6111010651895912
Antoing,7640,Tournai et Mouscron,hainaut,6,wallonie,1,6,-1.6552564670776038
Mouscron,7712,Tournai et Mouscron,hainaut,6,wallonie,1,6,-2.8728740402270794
Estaimpuis,7730,Tournai et Mouscron,hainaut,6,wallonie,1,6,-2.033167760275569
Pecq,7740,Tournai et Mouscron,hainaut,6,wallonie,1,6,-1.6732912738499186
Pecq,7743,Tournai et Mouscron,hainaut,6,wallonie,1,6,-1.6732912738499186
Comines-Warneton,7784,Tournai et Mouscron,hainaut,6,wallonie,1,6,-1.8100640308320972
Ath,7800,Ath,hainaut,6,wallonie,1,9,-1.7484161966211766
Ath,7802,Ath,hainaut,6,wallonie,1,9,-1.7484161966211766
Ath,7804,Ath,hainaut,6,wallonie,1,9,-1.7484161966211766
Ath,7812,Ath,hainaut,6,wallonie,1,9,-1.7484161966211766
Ath,7822,Ath,hainaut,6,wallonie,1,9,-1.7484161966211766
Silly,7830,Ath,hainaut,6,wallonie,1,9,-1.5701582213574872
Enghien,7850,Ath,hainaut,6,wallonie,1,9,-2.097867418531015
Lessines,7860,Ath,hainaut,6,wallonie,1,9,-1.9544978563841924
Lessines,7861,Ath,hainaut,6,wallonie,1,9,-1.9544978563841924
Lessines,7864,Ath,hainaut,6,wallonie,1,9,-1.9544978563841924
Lens,7870,Mons,hainaut,6,wallonie,1,11,-1.159292728755904
Leuze-en-Hainaut,7904,Tournai et Mouscron,hainaut,6,wallonie,1,6,-1.6045702832512352
Frasnes-lez-Anvaing,7910,Ath,hainaut,6,wallonie,1,9,-1.4885145970077012
Frasnes-lez-Anvaing,7911,Ath,hainaut,6,wallonie,1,9,-1.4885145970077012
Frasnes-lez-Anvaing,7912,Ath,hainaut,6,wallonie,1,9,-1.4885145970077012
Brugelette,7940,Ath,hainaut,6,wallonie,1,9,-1.2923581580544627
Brugelette,7941,Ath,hainaut,6,wallonie,1,9,-1.2923581580544627
Brugelette,7943,Ath,hainaut,6,wallonie,1,9,-1.2923581580544627
Chièvres,7950,Ath,hainaut,6,wallonie,1,9,-1.5374507382288638
Belœil,7972,Ath,hainaut,6,wallonie,1,9,-1.7183691138397839
Espierres-Helchin,8587,Courtrai,flandre-occidentale,0,flandre,0,25,-1.5399023094775601
Bruxelles,1020,Bruxelles-Capitale,bruxelles-capitale,3,bruxelles-capitale,2,30,-2.581414936244784
Schaerbeek,1030,Bruxelles-Capitale,bruxelles-capitale,3,bruxelles-capitale,2,30,-3.3851833636158215
Jette,1090,Bruxelles-Capitale,bruxelles-capitale,3,bruxelles-capitale,2,30,-3.185926733090803
Evere,1140,Bruxelles-Capitale,bruxelles-capitale,3,bruxelles-capitale,2,30,-2.924486470585006
Watermael-Boitsfort,1170,Bruxelles-Capitale,bruxelles-capitale,3,bruxelles-capitale,2,30,-2.483144131367094
Woluwe-Saint-Lambert,1200,Bruxelles-Capitale,bruxelles-capitale,3,bruxelles-capitale,2,30,-3.3959406895913102
Saint-Josse-ten-Noode,1210,Bruxelles-Capitale,bruxelles-capitale,3,bruxelles-capitale,2,30,-3.3691998516229487
Rixensart,1331,Nivelles,brabant-wallon,8,wallonie,1,4,-3.4102646553374427
Perwez,1360,Nivelles,brabant-wallon,8,wallonie,1,4,-1.6279652587430478
Jodoigne,1370,Nivelles,brabant-wallon,8,wallonie,1,4,-1.7110168231164933
Lasne,1380,Nivelles,brabant-wallon,8,wallonie,1,4,-2.827966051393019
Nivelles,1401,Nivelles,brabant-wallon,8,wallonie,1,4,-1.8952530213573229
Rebecq,1430,Nivelles,brabant-wallon,8,wallonie,1,4,-1.9881470198300453
Mont-Saint-Guibert,1435,Nivelles,brabant-wallon,8,wallonie,1,4,-2.2586349095923075
Genappe,1470,Nivelles,brabant-wallon,8,wallonie,1,4,-1.8039701322182824
Genappe,1472,Nivelles,brabant-wallon,8,wallonie,1,4,-1.8039701322182824
Genappe,1474,Nivelles,brabant-wallon,8,wallonie,1,4,-1.8039701322182824
Villers-la-Ville,1495,Nivelles,brabant-wallon,8,wallonie,1,4,-2.0401585739947796
Drogenbos,1620,Hal-Vilvorde,brabant-flamand,5,flandre,0,8,-2.6541330668282748
Kraainem,1950,Hal-Vilvorde,brabant-flamand,5,flandre,0,8,-3.481123628957864
Bruxelles,3700,Bruxelles-Capitale,bruxelles-capitale,3,bruxelles-capitale,2,30,-2.581414936244784
Fourons,3791,Tongres,limbourg,7,flandre,0,7,-0.9351409747692409
Liège,4000,Liège,liege,4,wallonie,1,3,-2.830604864273826
Liège,4032,Liège,liege,4,wallonie,1,3,-2.830604864273826
Chaudfontaine,4050,Liège,liege,4,wallonie,1,3,-3.1236125239772212
Neupré,4121,Liège,liege,4,wallonie,1,3,-2.478162615058977
Neupré,4122,Liège,liege,4,wallonie,1,3,-2.478162615058977
Sprimont,4140,Liège,liege,4,wallonie,1,3,-1.9295115641940204
Sprimont,4141,Liège,liege,4,wallonie,1,3,-1.9295115641940204
Comblain-au-Pont,4171,Liège,liege,4,wallonie,1,3,-1.466137406098108
Hamoir,4180,Huy,liege,4,wallonie,1,15,-1.3091340489723498
Hamoir,4181,Huy,liege,4,wallonie,1,15,-1.3091340489723498
Burdinne,4210,Huy,liege,4,wallonie,1,15,-1.4799499579398272
Geer,4254,Waremme,liege,4,wallonie,1,14,-1.771854215207943
Berloz,4257,Waremme,liege,4,wallonie,1,14,-1.844344150713618
Ans,4431,Liège,liege,4,wallonie,1,3,-2.5903543244013143
Juprelle,4452,Liège,liege,4,wallonie,1,3,-1.9128490728370573
Engis,4480,Huy,liege,4,wallonie,1,15,-1.4492788936940637
Modave,4577,Huy,liege,4,wallonie,1,15,-1.405158993968434
Dalhem,4606,Liège,liege,4,wallonie,1,3,-1.8096120973940113
Herve,4650,Verviers,liege,4,wallonie,1,5,-1.9894992082644871
Blegny,4672,Liège,liege,4,wallonie,1,3,-2.5039107182997635
La Calamine,4728,Verviers,liege,4,wallonie,1,5,-2.2499092598456496
Amblève,4771,Verviers,liege,4,wallonie,1,5,-0.4482983142048989
Stoumont,4821,Verviers,liege,4,wallonie,1,5,-0.32571592014833073
Baelen,4837,Verviers,liege,4,wallonie,1,5,-0.12424252699977904
Plombières,4851,Verviers,liege,4,wallonie,1,5,-1.519895895888827
Pepinster,4861,Verviers,liege,4,wallonie,1,5,-1.9121947215803041
Spa,4900,Verviers,liege,4,wallonie,1,5,-1.6072668784095432
Theux,4910,Verviers,liege,4,wallonie,1,5,-1.496832259812525
Trois-Ponts,4983,Verviers,liege,4,wallonie,1,5,-0.3208984570679383
Namur,5004,Namur,namur,9,wallonie,1,1,-2.5327944470916157
Namur,5024,Namur,namur,9,wallonie,1,1,-2.5327944470916157
Gembloux,5031,Namur,namur,9,wallonie,1,1,-1.8430707953448877
Stoumont,5080,Verviers,liege,4,wallonie,1,5,-0.32571592014833073
Assesse,5332,Namur,namur,9,wallonie,1,1,-1.2489609259601868
Assesse,5334,Namur,namur,9,wallonie,1,1,-1.2489609259601868
Hamois,5360,Dinant,namur,9,wallonie,1,0,-1.17771644129925
Hamois,5364,Dinant,namur,9,wallonie,1,0,-1.17771644129925
Dinant,5500,Dinant,namur,9,wallonie,1,0,-1.0807499136483643
Dinant,5502,Dinant,namur,9,wallonie,1,0,-1.0807499136483643
Onhaye,5523,Dinant,namur,9,wallonie,1,0,-0.5920256682961532
Hastière,5543,Dinant,namur,9,wallonie,1,0,-0.9758937217554582
Beauraing,5572,Dinant,namur,9,wallonie,1,0,-0.5319539220930115
Gedinne,5575,Dinant,namur,9,wallonie,1,0,-0.11516567314115449
Walcourt,5650,Philippeville,namur,9,wallonie,1,12,-1.4692845886998764
Charleroi,6000,Charleroi,hainaut,6,wallonie,1,21,-2.8855335437554714
Charleroi,6031,Charleroi,hainaut,6,wallonie,1,21,-2.8855335437554714
Charleroi,6041,Charleroi,hainaut,6,wallonie,1,21,-2.8855335437554714
Charleroi,6042,Charleroi,hainaut,6,wallonie,1,21,-2.8855335437554714
Ham-sur-Heure-Nalinnes,6120,Thuin,hainaut,6,wallonie,1,18,-2.201005412363688
Courcelles,6181,Charleroi,hainaut,6,wallonie,1,21,-2.393312970283998
Pont-à-Celles,6238,Charleroi,hainaut,6,wallonie,1,21,-1.8872884324879926
Gerpinnes,6280,Charleroi,hainaut,6,wallonie,1,21,-2.019469734207473
Sivry-Rance,6470,Thuin,hainaut,6,wallonie,1,18,-0.8902476356612709
Thuin,6530,Thuin,hainaut,6,wallonie,1,18,-1.5349956674448335
Thuin,6531,Thuin,hainaut,6,wallonie,1,18,-1.5349956674448335
Thuin,6533,Thuin,hainaut,6,wallonie,1,18,-1.5349956674448335
Lobbes,6542,Thuin,hainaut,6,wallonie,1,18,-1.7110553747518567
Momignies,6590,Thuin,hainaut,6,wallonie,1,18,-0.947555703325512
Martelange,6630,Arlon,luxembourg,10,wallonie,1,39,-0.3962638485582943
Sainte-Ode,6681,Bastogne,luxembourg,10,wallonie,1,31,-0.05671105332037909
Attert,6717,Arlon,luxembourg,10,wallonie,1,39,-0.8624281806487949
Habay,6724,Virton,luxembourg,10,wallonie,1,23,-0.6981120431623047
Étalle,6740,Virton,luxembourg,10,wallonie,1,23,-0.7725383952962527
Musson,6750,Virton,luxembourg,10,wallonie,1,23,-1.2498836333119723
Virton,6762,Virton,luxembourg,10,wallonie,1,23,-1.0168362524879784
Libramont-Chevigny,6800,Neufchâteau,luxembourg,10,wallonie,1,16,-0.6117877195068652
Chiny,6810,Virton,luxembourg,10,wallonie,1,23,-0.3118550232096052
Bouillon,6830,Neufchâteau,luxembourg,10,wallonie,1,16,-0.1740603571589246
Bouillon,6833,Neufchâteau,luxembourg,10,wallonie,1,16,-0.1740603571589246
Paliseul,6850,Neufchâteau,luxembourg,10,wallonie,1,16,-0.5521365688854891
Paliseul,6852,Neufchâteau,luxembourg,10,wallonie,1,16,-0.5521365688854891
Paliseul,6853,Neufchâteau,luxembourg,10,wallonie,1,16,-0.5521365688854891
Marche-en-Famenne,6900,Marche-en-Famenne,luxembourg,10,wallonie,1,24,-1.2814005380725941
Wellin,6924,Neufchâteau,luxembourg,10,wallonie,1,16,-0.4603389501309099
Nassogne,6950,Marche-en-Famenne,luxembourg,10,wallonie,1,24,-0.5312299559524897
Nassogne,6952,Marche-en-Famenne,luxembourg,10,wallonie,1,24,-0.5312299559524897
Tenneville,6970,Marche-en-Famenne,luxembourg,10,wallonie,1,24,-0.3042060868417184
Rendeux,6987,Marche-en-Famenne,luxembourg,10,wallonie,1,24,-0.5141518422132887
Érezée,6997,Marche-en-Famenne,luxembourg,10,wallonie,1,24,-0.7154561150575893
Mons,7022,Mons,hainaut,6,wallonie,1,11,-2.2921898083274823
Mons,7034,Mons,hainaut,6,wallonie,1,11,-2.2921898083274823
Quévy,7040,Mons,hainaut,6,wallonie,1,11,-1.3075660347567466
Quévy,7041,Mons,hainaut,6,wallonie,1,11,-1.3075660347567466
Soignies,7063,Soignies,hainaut,6,wallonie,1,33,-1.7195300128355355
Estinnes,7120,La Louvière,hainaut,6,wallonie,1,32,-1.1829269521891903
Binche,7130,La Louvière,hainaut,6,wallonie,1,32,-2.2326723569282567
Chapelle-lez-Herlaimont,7160,Charleroi,hainaut,6,wallonie,1,21,-2.425182884876668
Manage,7170,Soignies,hainaut,6,wallonie,1,33,-2.7003279988875764
Seneffe,7181,Soignies,hainaut,6,wallonie,1,33,-1.4466274532296481
Écaussinnes,7191,Soignies,hainaut,6,wallonie,1,33,-1.7829504484631384
Saint-Ghislain,7332,Mons,hainaut,6,wallonie,1,11,-2.033290225626708
Dour,7370,Mons,hainaut,6,wallonie,1,11,-2.1101881763927395
Quiévrain,7380,Mons,hainaut,6,wallonie,1,11,-1.7089369750611003
Quaregnon,7390,Mons,hainaut,6,wallonie,1,11,-2.990360067585215
Tournai,7502,Tournai et Mouscron,hainaut,6,wallonie,1,6,-1.9648941690841963
Tournai,7506,Tournai et Mouscron,hainaut,6,wallonie,1,6,-1.9648941690841963
Tournai,7520,Tournai et Mouscron,hainaut,6,wallonie,1,6,-1.9648941690841963
Tournai,7534,Tournai et Mouscron,hainaut,6,wallonie,1,6,-1.9648941690841963
Antoing,7642,Tournai et Mouscron,hainaut,6,wallonie,1,6,-1.6552564670776038
Mont-de-l'Enclus,7750,Tournai et Mouscron,hainaut,6,wallonie,1,6,-1.7729209105676051
Celles,7760,Tournai et Mouscron,hainaut,6,wallonie,1,6,-1.3348004599734626
Comines-Warneton,7781,Tournai et Mouscron,hainaut,6,wallonie,1,6,-1.8100640308320972
Comines-Warneton,7782,Tournai et Mouscron,hainaut,6,wallonie,1,6,-1.8100640308320972
Comines-Warneton,7783,Tournai et Mouscron,hainaut,6,wallonie,1,6,-1.8100640308320972
Ath,7811,Ath,hainaut,6,wallonie,1,9,-1.7484161966211766
Ath,7823,Ath,hainaut,6,wallonie,1,9,-1.7484161966211766
Lessines,7862,Ath,hainaut,6,wallonie,1,9,-1.9544978563841924
Ellezelles,7890,Ath,hainaut,6,wallonie,1,9,-1.7376553321365327
Belœil,7971,Ath,hainaut,6,wallonie,1,9,-1.7183691138397839
Ixelles,1050,Bruxelles-Capitale,bruxelles-capitale,3,bruxelles-capitale,2,30,-3.458049905353811
Koekelberg,1081,Bruxelles-Capitale,bruxelles-capitale,3,bruxelles-capitale,2,30,-3.28966725251555
Bruxelles,1130,Bruxelles-Capitale,bruxelles-capitale,3,bruxelles-capitale,2,30,-2.581414936244784
Woluwe-Saint-Pierre,1150,Bruxelles-Capitale,bruxelles-capitale,3,bruxelles-capitale,2,30,-3.539717582182534
Incourt,1315,Nivelles,brabant-wallon,8,wallonie,1,4,-1.7121111048384088
Chaumont-Gistoux,1325,Nivelles,brabant-wallon,8,wallonie,1,4,-2.363841630323683
Ottignies-Louvain-la-Neuve,1341,Nivelles,brabant-wallon,8,wallonie,1,4,-2.670084035741534
Wemmel,1780,Hal-Vilvorde,brabant-flamand,5,flandre,0,8,-3.1466088191233967
Fourons,3798,Tongres,limbourg,7,flandre,0,7,-0.9351409747692409
Liège,4020,Liège,liege,4,wallonie,1,3,-2.830604864273826
Herstal,4040,Liège,liege,4,wallonie,1,3,-2.7658988954072066
Herstal,4042,Liège,liege,4,wallonie,1,3,-2.7658988954072066
Chaudfontaine,4052,Liège,liege,4,wallonie,1,3,-3.1236125239772212
Héron,4218,Huy,liege,4,wallonie,1,15,-1.7586485480960716
Geer,4253,Waremme,liege,4,wallonie,1,14,-1.771854215207943
Braives,4261,Waremme,liege,4,wallonie,1,14,-1.691391228921149
Braives,4263,Waremme,liege,4,wallonie,1,14,-1.691391228921149
Juprelle,4458,Liège,liege,4,wallonie,1,3,-1.9128490728370573
Neupré,4480,Liège,liege,4,wallonie,1,3,-2.478162615058977
Visé,4602,Liège,liege,4,wallonie,1,3,-2.22863580488391
Soumagne,4631,Liège,liege,4,wallonie,1,3,-2.6133575280061447
Herve,4652,Verviers,liege,4,wallonie,1,5,-1.9894992082644871
Eupen,4701,Verviers,liege,4,wallonie,1,5,-1.1133098650482713
La Calamine,4720,Verviers,liege,4,wallonie,1,5,-2.2499092598456496
La Calamine,4721,Verviers,liege,4,wallonie,1,5,-2.2499092598456496
Bullange,4760,Verviers,liege,4,wallonie,1,5,-0.39666423881492385
Bullange,4761,Verviers,liege,4,wallonie,1,5,-0.39666423881492385
Saint-Vith,4784,Verviers,liege,4,wallonie,1,5,-0.6570755402905435
Burg-Reuland,4790,Verviers,liege,4,wallonie,1,5,-0.2846583064939332
Verviers,4800,Verviers,liege,4,wallonie,1,5,-2.838255646959387
Dison,4820,Verviers,liege,4,wallonie,1,5,-2.4192404731587875
Jalhay,4845,Verviers,liege,4,wallonie,1,5,-1.1530603075600052
Aubel,4880,Verviers,liege,4,wallonie,1,5,-1.807846408418871
Trois-Ponts,4980,Verviers,liege,4,wallonie,1,5,-0.3208984570679383
Namur,5021,Namur,namur,9,wallonie,1,1,-2.5327944470916157
Namur,5022,Namur,namur,9,wallonie,1,1,-2.5327944470916157
Profondeville,5170,Namur,namur,9,wallonie,1,1,-2.2177090499348537
Assesse,5336,Namur,namur,9,wallonie,1,1,-1.2489609259601868
Havelange,5374,Dinant,namur,9,wallonie,1,0,-0.6591383447839794
Onhaye,5520,Dinant,namur,9,wallonie,1,0,-0.5920256682961532
Onhaye,5524,Dinant,namur,9,wallonie,1,0,-0.5920256682961532
Hastière,5541,Dinant,namur,9,wallonie,1,0,-0.9758937217554582
Hastière,5542,Dinant,namur,9,wallonie,1,0,-0.9758937217554582
Houyet,5563,Dinant,namur,9,wallonie,1,0,-0.3634611181692135
Houyet,5564,Dinant,namur,9,wallonie,1,0,-0.3634611181692135
Doische,5680,Philippeville,namur,9,wallonie,1,12,-0.1588373802593274
Charleroi,6001,Charleroi,hainaut,6,wallonie,1,21,-2.8855335437554714
Charleroi,6044,Charleroi,hainaut,6,wallonie,1,21,-2.8855335437554714
Fontaine-l'Évêque,6140,Charleroi,hainaut,6,wallonie,1,21,-2.3149898960228175
Fleurus,6220,Charleroi,hainaut,6,wallonie,1,21,-1.8099311284986277
Thuin,6532,Thuin,hainaut,6,wallonie,1,18,-1.5349956674448335
Vaux-sur-Sûre,6642,Bastogne,luxembourg,10,wallonie,1,31,-0.4813873636966113
Houffalize,6663,Bastogne,luxembourg,10,wallonie,1,31,-0.3667708615461336
Gouvy,6670,Bastogne,luxembourg,10,wallonie,1,31,-0.305068953701205
Sainte-Ode,6680,Bastogne,luxembourg,10,wallonie,1,31,-0.05671105332037909
Bertogne,6688,Bastogne,luxembourg,10,wallonie,1,31,-0.44456953695593393
Arlon,6706,Arlon,luxembourg,10,wallonie,1,39,-1.5638984102976647
Habay,6720,Virton,luxembourg,10,wallonie,1,23,-0.6981120431623047
Habay,6721,Virton,luxembourg,10,wallonie,1,23,-0.6981120431623047
Étalle,6741,Virton,luxembourg,10,wallonie,1,23,-0.7725383952962527
Aubange,6790,Arlon,luxembourg,10,wallonie,1,39,-1.8593203296248104
Aubange,6792,Arlon,luxembourg,10,wallonie,1,39,-1.8593203296248104
Bouillon,6832,Neufchâteau,luxembourg,10,wallonie,1,16,-0.1740603571589246
Malmedy,6834,Verviers,liege,4,wallonie,1,5,-1.1483687606644406
La Roche-en-Ardenne,6984,Marche-en-Famenne,luxembourg,10,wallonie,1,24,-0.16592298577206152
Mons,7012,Mons,hainaut,6,wallonie,1,11,-2.2921898083274823
Mons,7030,Mons,hainaut,6,wallonie,1,11,-2.2921898083274823
Mons,7032,Mons,hainaut,6,wallonie,1,11,-2.2921898083274823
Morlanwelz,7140,La Louvière,hainaut,6,wallonie,1,32,-2.7016054829487675
Bernissart,7320,Ath,hainaut,6,wallonie,1,9,-1.999142412718913
Quiévrain,7382,Mons,hainaut,6,wallonie,1,11,-1.7089369750611003
Tournai,7500,Tournai et Mouscron,hainaut,6,wallonie,1,6,-1.9648941690841963
Tournai,7504,Tournai et Mouscron,hainaut,6,wallonie,1,6,-1.9648941690841963
Tournai,7532,Tournai et Mouscron,hainaut,6,wallonie,1,6,-1.9648941690841963
Tournai,7542,Tournai et Mouscron,hainaut,6,wallonie,1,6,-1.9648941690841963
Péruwelz,7602,Tournai et Mouscron,hainaut,6,wallonie,1,6,-2.035568768762442
Péruwelz,7603,Tournai et Mouscron,hainaut,6,wallonie,1,6,-2.035568768762442
Brunehaut,7624,Tournai et Mouscron,hainaut,6,wallonie,1,6,-1.6111010651895912
Antoing,7641,Tournai et Mouscron,hainaut,6,wallonie,1,6,-1.6552564670776038
Pecq,7742,Tournai et Mouscron,hainaut,6,wallonie,1,6,-1.6732912738499186
Comines-Warneton,7780,Tournai et Mouscron,hainaut,6,wallonie,1,6,-1.8100640308320972
Ath,7801,Ath,hainaut,6,wallonie,1,9,-1.7484161966211766
Lessines,7866,Ath,hainaut,6,wallonie,1,9,-1.9544978563841924
Leuze-en-Hainaut,7900,Tournai et Mouscron,hainaut,6,wallonie,1,6,-1.6045702832512352
Leuze-en-Hainaut,7903,Tournai et Mouscron,hainaut,6,wallonie,1,6,-1.6045702832512352
Belœil,7970,Ath,hainaut,6,wallonie,1,9,-1.7183691138397839
Renaix,9600,Audenarde,flandre-orientale,1,flandre,0,19,-2.5345989227442414
Etterbeek,1040,Bruxelles-Capitale,bruxelles-capitale,3,bruxelles-capitale,2,30,-3.438875131417699
Anderlecht,1070,Bruxelles-Capitale,bruxelles-capitale,3,bruxelles-capitale,2,30,-2.7727024185468894
Auderghem,1160,Bruxelles-Capitale,bruxelles-capitale,3,bruxelles-capitale,2,30,-2.8728648331308277
Uccle,1180,Bruxelles-Capitale,bruxelles-capitale,3,bruxelles-capitale,2,30,-3.273242626701166
Forest,1190,Bruxelles-Capitale,bruxelles-capitale,3,bruxelles-capitale,2,30,-3.010760986110368
Nivelles,1400,Nivelles,brabant-wallon,8,wallonie,1,4,-1.8952530213573229
Nivelles,1402,Nivelles,brabant-wallon,8,wallonie,1,4,-1.8952530213573229
Genappe,1473,Nivelles,brabant-wallon,8,wallonie,1,4,-1.8039701322182824
Genappe,1476,Nivelles,brabant-wallon,8,wallonie,1,4,-1.8039701322182824
Biévène,1547,Hal-Vilvorde,brabant-flamand,5,flandre,0,8,-1.5337111270306194
Linkebeek,1630,Hal-Vilvorde,brabant-flamand,5,flandre,0,8,-3.022062671384561
Rhode-Saint-Genèse,1640,Hal-Vilvorde,brabant-flamand,5,flandre,0,8,-3.1414176826462286
Liège,4030,Liège,liege,4,wallonie,1,3,-2.830604864273826
Chaudfontaine,4053,Liège,liege,4,wallonie,1,3,-3.1236125239772212
Anthisnes,4161,Huy,liege,4,wallonie,1,15,-1.3751862137186448
Anthisnes,4163,Huy,liege,4,wallonie,1,15,-1.3751862137186448
Wasseiges,4219,Waremme,liege,4,wallonie,1,14,-1.3805783639610647
Geer,4252,Waremme,liege,4,wallonie,1,14,-1.771854215207943
Lincent,4287,Waremme,liege,4,wallonie,1,14,-1.8613869487449608
Remicourt,4351,Waremme,liege,4,wallonie,1,14,-1.9193357307822263
Ans,4430,Liège,liege,4,wallonie,1,3,-2.5903543244013143
Ans,4432,Liège,liege,4,wallonie,1,3,-2.5903543244013143
Dalhem,4608,Liège,liege,4,wallonie,1,3,-1.8096120973940113
Fléron,4621,Liège,liege,4,wallonie,1,3,-2.9412505766011394
Fléron,4623,Liège,liege,4,wallonie,1,3,-2.9412505766011394
Soumagne,4632,Liège,liege,4,wallonie,1,3,-2.6133575280061447
Herve,4654,Verviers,liege,4,wallonie,1,5,-1.9894992082644871
Oupeye,4681,Liège,liege,4,wallonie,1,3,-2.3624307517636445
Oupeye,4684,Liège,liege,4,wallonie,1,3,-2.3624307517636445
Eupen,4700,Verviers,liege,4,wallonie,1,5,-1.1133098650482713
Saint-Vith,4780,Verviers,liege,4,wallonie,1,5,-0.6570755402905435
Saint-Vith,4782,Verviers,liege,4,wallonie,1,5,-0.6570755402905435
Theux,4800,Verviers,liege,4,wallonie,1,5,-1.496832259812525
Limbourg,4830,Verviers,liege,4,wallonie,1,5,-1.5240509421762134
Plombières,4852,Verviers,liege,4,wallonie,1,5,-1.519895895888827
Sprimont,4920,Liège,liege,4,wallonie,1,3,-1.9295115641940204
Lierneux,4990,Verviers,liege,4,wallonie,1,5,-0.38185754862525284
Ohey,5353,Namur,namur,9,wallonie,1,1,-1.3071651820119745
Ohey,5354,Namur,namur,9,wallonie,1,1,-1.3071651820119745
Hamois,5362,Dinant,namur,9,wallonie,1,0,-1.17771644129925
Hamois,5363,Dinant,namur,9,wallonie,1,0,-1.17771644129925
Havelange,5372,Dinant,namur,9,wallonie,1,0,-0.6591383447839794
Dinant,5501,Dinant,namur,9,wallonie,1,0,-1.0807499136483643
Onhaye,5521,Dinant,namur,9,wallonie,1,0,-0.5920256682961532
Onhaye,5522,Dinant,namur,9,wallonie,1,0,-0.5920256682961532
Charleroi,6020,Charleroi,hainaut,6,wallonie,1,21,-2.8855335437554714
Charleroi,6032,Charleroi,hainaut,6,wallonie,1,21,-2.8855335437554714
Montigny-le-Tilleul,6111,Charleroi,hainaut,6,wallonie,1,21,-2.9238474450070817
Châtelet,6200,Charleroi,hainaut,6,wallonie,1,21,-2.6452819863159758
Fleurus,6221,Charleroi,hainaut,6,wallonie,1,21,-1.8099311284986277
Fleurus,6224,Charleroi,hainaut,6,wallonie,1,21,-1.8099311284986277
Chimay,6462,Thuin,hainaut,6,wallonie,1,18,-0.4279792133148156
Chimay,6463,Thuin,hainaut,6,wallonie,1,18,-0.4279792133148156
Beaumont,6511,Thuin,hainaut,6,wallonie,1,18,-0.8184459659187443
Lobbes,6543,Thuin,hainaut,6,wallonie,1,18,-1.7110553747518567
Momignies,6592,Thuin,hainaut,6,wallonie,1,18,-0.947555703325512
Theux,6661,Verviers,liege,4,wallonie,1,5,-1.496832259812525
Houffalize,6661,Bastogne,luxembourg,10,wallonie,1,31,-0.3667708615461336
Houffalize,6666,Bastogne,luxembourg,10,wallonie,1,31,-0.3667708615461336
Gouvy,6671,Bastogne,luxembourg,10,wallonie,1,31,-0.305068953701205
Gouvy,6672,Bastogne,luxembourg,10,wallonie,1,31,-0.305068953701205
Gouvy,6674,Bastogne,luxembourg,10,wallonie,1,31,-0.305068953701205
Bertogne,6686,Bastogne,luxembourg,10,wallonie,1,31,-0.44456953695593393
Bertogne,6687,Bastogne,luxembourg,10,wallonie,1,31,-0.44456953695593393
Habay,6723,Virton,luxembourg,10,wallonie,1,23,-0.6981120431623047
Messancy,6782,Arlon,luxembourg,10,wallonie,1,39,-1.3602421950364578
Aubange,6791,Arlon,luxembourg,10,wallonie,1,39,-1.8593203296248104
Chiny,6811,Virton,luxembourg,10,wallonie,1,23,-0.3118550232096052
Chiny,6813,Virton,luxembourg,10,wallonie,1,23,-0.3118550232096052
Flémalle,6831,Liège,liege,4,wallonie,1,3,-2.4830741956565654
Bouillon,6838,Neufchâteau,luxembourg,10,wallonie,1,16,-0.1740603571589246
Wellin,6921,Neufchâteau,luxembourg,10,wallonie,1,16,-0.4603389501309099
Wellin,6922,Neufchâteau,luxembourg,10,wallonie,1,16,-0.4603389501309099
Tenneville,6971,Marche-en-Famenne,luxembourg,10,wallonie,1,24,-0.3042060868417184
La Roche-en-Ardenne,6982,Marche-en-Famenne,luxembourg,10,wallonie,1,24,-0.16592298577206152
La Roche-en-Ardenne,6983,Marche-en-Famenne,luxembourg,10,wallonie,1,24,-0.16592298577206152
La Roche-en-Ardenne,6986,Marche-en-Famenne,luxembourg,10,wallonie,1,24,-0.16592298577206152
Houffalize,6997,Bastogne,luxembourg,10,wallonie,1,31,-0.3667708615461336
Mons,7011,Mons,hainaut,6,wallonie,1,11,-2.2921898083274823
Mons,7031,Mons,hainaut,6,wallonie,1,11,-2.2921898083274823
Soignies,7061,Soignies,hainaut,6,wallonie,1,33,-1.7195300128355355
Morlanwelz,7141,La Louvière,hainaut,6,wallonie,1,32,-2.7016054829487675
Bernissart,7322,Ath,hainaut,6,wallonie,1,9,-1.999142412718913
Saint-Ghislain,7334,Mons,hainaut,6,wallonie,1,11,-2.033290225626708
Tournai,7503,Tournai et Mouscron,hainaut,6,wallonie,1,6,-1.9648941690841963
Tournai,7521,Tournai et Mouscron,hainaut,6,wallonie,1,6,-1.9648941690841963
Tournai,7548,Tournai et Mouscron,hainaut,6,wallonie,1,6,-1.9648941690841963
Péruwelz,7601,Tournai et Mouscron,hainaut,6,wallonie,1,6,-2.035568768762442
Rumes,7618,Tournai et Mouscron,hainaut,6,wallonie,1,6,-1.9769670754145738
Mouscron,7711,Tournai et Mouscron,hainaut,6,wallonie,1,6,-2.8728740402270794
Ath,7803,Ath,hainaut,6,wallonie,1,9,-1.7484161966211766
Flobecq,7880,Ath,hainaut,6,wallonie,1,9,-1.738454282281861
Belœil,7973,Ath,hainaut,6,wallonie,1,9,-1.7183691138397839
Bruxelles,1000,Bruxelles-Capitale,bruxelles-capitale,3,bruxelles-capitale,2,30,-2.581414936244784
Berchem-Sainte-Agathe,1082,Bruxelles-Capitale,bruxelles-capitale,3,bruxelles-capitale,2,30,-3.3375599132776372
La Hulpe,1310,Nivelles,brabant-wallon,8,wallonie,1,4,-2.5161544114349983
Rixensart,1330,Nivelles,brabant-wallon,8,wallonie,1,4,-3.4102646553374427
Rixensart,1332,Nivelles,brabant-wallon,8,wallonie,1,4,-3.4102646553374427
Ottignies-Louvain-la-Neuve,1342,Nivelles,brabant-wallon,8,wallonie,1,4,-2.670084035741534
Nivelles,1404,Nivelles,brabant-wallon,8,wallonie,1,4,-1.8952530213573229
Waterloo,1410,Nivelles,brabant-wallon,8,wallonie,1,4,-3.331157502710062
Braine-l'Alleud,1421,Nivelles,brabant-wallon,8,wallonie,1,4,-2.6454629655921007
Braine-l'Alleud,1428,Nivelles,brabant-wallon,8,wallonie,1,4,-2.6454629655921007
Ittre,1461,Nivelles,brabant-wallon,8,wallonie,1,4,-1.8688155203534396
Court-Saint-Étienne,1490,Nivelles,brabant-wallon,8,wallonie,1,4,-2.2676785237987045
Wezembeek-Oppem,1970,Hal-Vilvorde,brabant-flamand,5,flandre,0,8,-3.4823401710360344
Chaudfontaine,4051,Liège,liege,4,wallonie,1,3,-3.1236125239772212
Seraing,4100,Liège,liege,4,wallonie,1,3,-2.719015898762852
Seraing,4101,Liège,liege,4,wallonie,1,3,-2.719015898762852
Esneux,4130,Liège,liege,4,wallonie,1,3,-2.2635488300922812
Anthisnes,4160,Huy,liege,4,wallonie,1,15,-1.3751862137186448
Juprelle,4451,Liège,liege,4,wallonie,1,3,-1.9128490728370573
Saint-Georges-sur-Meuse,4470,Waremme,liege,4,wallonie,1,14,-2.2295015589557963
Visé,4601,Liège,liege,4,wallonie,1,3,-2.22863580488391
Fléron,4620,Liège,liege,4,wallonie,1,3,-2.9412505766011394
Fléron,4624,Liège,liege,4,wallonie,1,3,-2.9412505766011394
Soumagne,4633,Liège,liege,4,wallonie,1,3,-2.6133575280061447
Oupeye,4683,Liège,liege,4,wallonie,1,3,-2.3624307517636445
Raeren,4731,Verviers,liege,4,wallonie,1,5,-1.2674240912039443
Saint-Vith,4783,Verviers,liege,4,wallonie,1,5,-0.6570755402905435
Verviers,4802,Verviers,liege,4,wallonie,1,5,-2.838255646959387
Limbourg,4834,Verviers,liege,4,wallonie,1,5,-1.5240509421762134
Welkenraedt,4841,Verviers,liege,4,wallonie,1,5,-1.9304831549846726
Namur,5001,Namur,namur,9,wallonie,1,1,-2.5327944470916157
Ohey,5351,Namur,namur,9,wallonie,1,1,-1.3071651820119745
Havelange,5376,Dinant,namur,9,wallonie,1,0,-0.6591383447839794
Dinant,5504,Dinant,namur,9,wallonie,1,0,-1.0807499136483643
Theux,5530,Verviers,liege,4,wallonie,1,5,-1.496832259812525
Hastière,5544,Dinant,namur,9,wallonie,1,0,-0.9758937217554582
Beauraing,5576,Dinant,namur,9,wallonie,1,0,-0.5319539220930115
Florennes,5621,Philippeville,namur,9,wallonie,1,12,-0.8073678814089904
Mettet,5641,Namur,namur,9,wallonie,1,1,-1.2780359386790945
Mettet,5646,Namur,namur,9,wallonie,1,1,-1.2780359386790945
Charleroi,6030,Charleroi,hainaut,6,wallonie,1,21,-2.8855335437554714
Charleroi,6040,Charleroi,hainaut,6,wallonie,1,21,-2.8855335437554714
Montigny-le-Tilleul,6110,Charleroi,hainaut,6,wallonie,1,21,-2.9238474450070817
Fontaine-l'Évêque,6142,Charleroi,hainaut,6,wallonie,1,21,-2.3149898960228175
Anderlues,6150,Thuin,hainaut,6,wallonie,1,18,-2.714648899160757
Courcelles,6180,Charleroi,hainaut,6,wallonie,1,21,-2.393312970283998
Les Bons Villers,6211,Charleroi,hainaut,6,wallonie,1,21,-1.752169073438321
Fleurus,6222,Charleroi,hainaut,6,wallonie,1,21,-1.8099311284986277
Froidchapelle,6441,Thuin,hainaut,6,wallonie,1,18,-0.34745327854100083
Chimay,6461,Thuin,hainaut,6,wallonie,1,18,-0.4279792133148156
Thuin,6534,Thuin,hainaut,6,wallonie,1,18,-1.5349956674448335
Momignies,6591,Thuin,hainaut,6,wallonie,1,18,-0.947555703325512
Houffalize,6660,Bastogne,luxembourg,10,wallonie,1,31,-0.3667708615461336
Vielsalm,6692,Bastogne,luxembourg,10,wallonie,1,31,-0.6367638126281108
Vielsalm,6698,Bastogne,luxembourg,10,wallonie,1,31,-0.6367638126281108
Étalle,6743,Virton,luxembourg,10,wallonie,1,23,-0.7725383952962527
Messancy,6781,Arlon,luxembourg,10,wallonie,1,39,-1.3602421950364578
Paliseul,6851,Neufchâteau,luxembourg,10,wallonie,1,16,-0.5521365688854891
Mons,7000,Mons,hainaut,6,wallonie,1,11,-2.2921898083274823
Soignies,7062,Soignies,hainaut,6,wallonie,1,33,-1.7195300128355355
Binche,7131,La Louvière,hainaut,6,wallonie,1,32,-2.2326723569282567
Boussu,7300,Mons,hainaut,6,wallonie,1,11,-2.531853272403469
Saint-Ghislain,7331,Mons,hainaut,6,wallonie,1,11,-2.033290225626708
Saint-Ghislain,7333,Mons,hainaut,6,wallonie,1,11,-2.033290225626708
Tournai,7501,Tournai et Mouscron,hainaut,6,wallonie,1,6,-1.9648941690841963
Tournai,7530,Tournai et Mouscron,hainaut,6,wallonie,1,6,-1.9648941690841963
Tournai,7531,Tournai et Mouscron,hainaut,6,wallonie,1,6,-1.9648941690841963
Rumes,7610,Tournai et Mouscron,hainaut,6,wallonie,1,6,-1.9769670754145738
Rumes,7611,Tournai et Mouscron,hainaut,6,wallonie,1,6,-1.9769670754145738
Brunehaut,7622,Tournai et Mouscron,hainaut,6,wallonie,1,6,-1.6111010651895912
Antoing,7643,Tournai et Mouscron,hainaut,6,wallonie,1,6,-1.6552564670776038
Mouscron,7700,Tournai et Mouscron,hainaut,6,wallonie,1,6,-2.8728740402270794
Ath,7810,Ath,hainaut,6,wallonie,1,9,-1.7484161966211766
Lessines,7863,Ath,hainaut,6,wallonie,1,9,-1.9544978563841924
Leuze-en-Hainaut,7901,Tournai et Mouscron,hainaut,6,wallonie,1,6,-1.6045702832512352
Leuze-en-Hainaut,7906,Tournai et Mouscron,hainaut,6,wallonie,1,6,-1.6045702832512352
Brugelette,7942,Ath,hainaut,6,wallonie,1,9,-1.2923581580544627
Chièvres,7951,Ath,hainaut,6,wallonie,1,9,-1.5374507382288638
Messines,8957,Ypres,flandre-occidentale,0,flandre,0,27,-1.9172826458784642
Sint-Gillis,1060,Bruxelles-Capitale,bruxelles-capitale,3,bruxelles-capitale,2,30,-3.458745080839866
Sint-Jans-Molenbeek,1080,Bruxelles-Capitale,bruxelles-capitale,3,bruxelles-capitale,2,30,-3.036240582144672
Brussel,1120,Bruxelles-Capitale,bruxelles-capitale,3,bruxelles-capitale,2,30,-2.581414936244784
Galmaarden,1570,Hal-Vilvorde,brabant-flamand,5,flandre,0,8,-2.1414062926769977
Sint-Pieters-Leeuw,1601,Hal-Vilvorde,brabant-flamand,5,flandre,0,8,-2.3891934194277074
Beersel,1652,Hal-Vilvorde,brabant-flamand,5,flandre,0,8,-2.8513215326091834
Pepingen,1673,Hal-Vilvorde,brabant-flamand,5,flandre,0,8,-1.7585861269883607
Asse,1730,Hal-Vilvorde,brabant-flamand,5,flandre,0,8,-2.3967826889689516
Asse,1731,Hal-Vilvorde,brabant-flamand,5,flandre,0,8,-2.3967826889689516
Lennik,1750,Hal-Vilvorde,brabant-flamand,5,flandre,0,8,-2.275852207789248
Gooik,1755,Hal-Vilvorde,brabant-flamand,5,flandre,0,8,-2.0258505092879036
Roosdaal,1760,Hal-Vilvorde,brabant-flamand,5,flandre,0,8,-2.7160425635617407
Liedekerke,1770,Hal-Vilvorde,brabant-flamand,5,flandre,0,8,-2.88111796332026
Machelen,1831,Hal-Vilvorde,brabant-flamand,5,flandre,0,8,-2.380667701539006
Meise,1860,Hal-Vilvorde,brabant-flamand,5,flandre,0,8,-2.539691056435877
Kapelle-op-den-Bos,1880,Hal-Vilvorde,brabant-flamand,5,flandre,0,8,-2.5857280658805455
Kampenhout,1910,Hal-Vilvorde,brabant-flamand,5,flandre,0,8,-2.39210012164182
Zaventem,1930,Hal-Vilvorde,brabant-flamand,5,flandre,0,8,-2.612727828309232
Zaventem,1933,Hal-Vilvorde,brabant-flamand,5,flandre,0,8,-2.612727828309232
Zemst,1982,Hal-Vilvorde,brabant-flamand,5,flandre,0,8,-2.5096116991396036
Antwerpen,2000,Antwerpen,anvers,2,flandre,0,17,-2.3140252327608355
Antwerpen,2050,Antwerpen,anvers,2,flandre,0,17,-2.3140252327608355
Antwerpen,2180,Antwerpen,anvers,2,flandre,0,17,-2.3140252327608355
Herentals,2200,Turnhout,anvers,2,flandre,0,22,-2.3215977884107
Zandhoven,2242,Antwerpen,anvers,2,flandre,0,17,-2.376938729710577
Zandhoven,2243,Antwerpen,anvers,2,flandre,0,17,-2.376938729710577
Lille,2275,Turnhout,anvers,2,flandre,0,22,-2.0526002394816354
Hoogstraten,2322,Turnhout,anvers,2,flandre,0,22,-1.776175427538883
Merksplas,2330,Turnhout,anvers,2,flandre,0,22,-1.7907999295664903
Arendonk,2370,Turnhout,anvers,2,flandre,0,22,-1.7195475214614888
Ravels,2380,Turnhout,anvers,2,flandre,0,22,-1.6294118520700032
Laakdal,2430,Turnhout,anvers,2,flandre,0,22,-2.353682522639676
Laakdal,2431,Turnhout,anvers,2,flandre,0,22,-2.353682522639676
Meerhout,2450,Turnhout,anvers,2,flandre,0,22,-2.1901469989224855
Retie,2470,Turnhout,anvers,2,flandre,0,22,-2.0116107280594213
Balen,2491,Turnhout,anvers,2,flandre,0,22,-2.358705427046589
Lier,2500,Mechelen,anvers,2,flandre,0,29,-2.2805024714573197
Nijlen,2560,Mechelen,anvers,2,flandre,0,29,-2.5506537556539666
Berlaar,2590,Mechelen,anvers,2,flandre,0,29,-2.3735383312259724
Hemiksem,2620,Antwerpen,anvers,2,flandre,0,17,-2.805571119947079
Mechelen,2800,Mechelen,anvers,2,flandre,0,29,-2.4949792889741245
Mechelen,2811,Mechelen,anvers,2,flandre,0,29,-2.4949792889741245
Bonheiden,2820,Mechelen,anvers,2,flandre,0,29,-2.7852041631243694
Willebroek,2830,Mechelen,anvers,2,flandre,0,29,-2.4273008396280806
Rumst,2840,Antwerpen,anvers,2,flandre,0,17,-2.4938994156229235
Boom,2850,Antwerpen,anvers,2,flandre,0,17,-2.6389633716183725
Sint-Katelijne-Waver,2861,Mechelen,anvers,2,flandre,0,29,-2.5611314452090475
Puurs-Sint-Amands,2870,Mechelen,anvers,2,flandre,0,29,-2.4136258478742945
Kalmthout,2920,Antwerpen,anvers,2,flandre,0,17,-2.3718689678439673
Stabroek,2940,Antwerpen,anvers,2,flandre,0,17,-2.4498839644721766
Schilde,2970,Antwerpen,anvers,2,flandre,0,17,-3.1847606980018948
Leuven,3010,Leuven,brabant-flamand,5,flandre,0,2,-2.8679393659617713
Herent,3020,Leuven,brabant-flamand,5,flandre,0,2,-2.6715336444486226
Huldenberg,3040,Leuven,brabant-flamand,5,flandre,0,2,-2.277709443442412
Kortenberg,3070,Leuven,brabant-flamand,5,flandre,0,2,-2.4661285482626414
Kortenberg,3078,Leuven,brabant-flamand,5,flandre,0,2,-2.4661285482626414
Tervuren,3080,Leuven,brabant-flamand,5,flandre,0,2,-2.670606798373269
Haacht,3150,Leuven,brabant-flamand,5,flandre,0,2,-2.5266791555075327
Aarschot,3200,Leuven,brabant-flamand,5,flandre,0,2,-2.542434858074915
Holsbeek,3220,Leuven,brabant-flamand,5,flandre,0,2,-2.2664043012951383
Tienen,3300,Leuven,brabant-flamand,5,flandre,0,2,-2.1846795443854767
Linter,3350,Leuven,brabant-flamand,5,flandre,0,2,-1.8815685880829316
Bierbeek,3360,Leuven,brabant-flamand,5,flandre,0,2,-2.040833188267523
Glabbeek,3380,Leuven,brabant-flamand,5,flandre,0,2,-2.1313615312745156
Glabbeek,3384,Leuven,brabant-flamand,5,flandre,0,2,-2.1313615312745156
Tielt-Winge,3391,Leuven,brabant-flamand,5,flandre,0,2,-2.2131527567493228
Landen,3400,Leuven,brabant-flamand,5,flandre,0,2,-1.8368508554064578
Zoutleeuw,3440,Leuven,brabant-flamand,5,flandre,0,2,-1.7448096583579542
Kortenaken,3471,Leuven,brabant-flamand,5,flandre,0,2,-1.9062419135888526
Hasselt,3510,Hasselt,limbourg,7,flandre,0,20,-2.593938813969217
Houthalen-Helchteren,3530,Maaseik,limbourg,7,flandre,0,26,-2.2087137366578764
Herk-de-Stad,3540,Hasselt,limbourg,7,flandre,0,20,-2.260088640277054
Beringen,3580,Hasselt,limbourg,7,flandre,0,20,-2.5995462079535883
Lanaken,3620,Tongres,limbourg,7,flandre,0,7,-2.2460863685225854
Maasmechelen,3630,Tongres,limbourg,7,flandre,0,7,-2.2231329430046727
Maasmechelen,3631,Tongres,limbourg,7,flandre,0,7,-2.2231329430046727
Kinrooi,3640,Maaseik,limbourg,7,flandre,0,26,-2.0253809495805184
Oudsbergen,3670,Maaseik,limbourg,7,flandre,0,26,-1.8274167542706898
Zutendaal,3690,Hasselt,limbourg,7,flandre,0,20,-1.9421870065826803
Tongeren,3700,Tongres,limbourg,7,flandre,0,7,-1.9530288664650055
Kortessem,3723,Tongres,limbourg,7,flandre,0,7,-2.0055208730404934
Kortessem,3724,Tongres,limbourg,7,flandre,0,7,-2.0055208730404934
Hoeselt,3730,Tongres,limbourg,7,flandre,0,7,-2.225321276113226
Bilzen,3740,Tongres,limbourg,7,flandre,0,7,-2.283690912320083
Riemst,3770,Tongres,limbourg,7,flandre,0,7,-1.9246082362260795
Voeren,3790,Tongres,limbourg,7,flandre,0,7,-0.9351409747692409
Voeren,3792,Tongres,limbourg,7,flandre,0,7,-0.9351409747692409
Voeren,3793,Tongres,limbourg,7,flandre,0,7,-0.9351409747692409
Sint-Truiden,3800,Hasselt,limbourg,7,flandre,0,20,-2.016464139991807
Wellen,3831,Tongres,limbourg,7,flandre,0,7,-2.211780466258014
Borgloon,3840,Tongres,limbourg,7,flandre,0,7,-1.8145009029970862
Tongeren,3840,Tongres,limbourg,7,flandre,0,7,-1.9530288664650055
Nieuwerkerken,3850,Hasselt,limbourg,7,flandre,0,20,-2.33319323262231
Heers,3870,Tongres,limbourg,7,flandre,0,7,-1.3194775416934201
Gingelom,3890,Hasselt,limbourg,7,flandre,0,20,-1.4410028314820482
Gingelom,3891,Hasselt,limbourg,7,flandre,0,20,-1.4410028314820482
Lommel,3920,Maaseik,limbourg,7,flandre,0,26,-2.1031651073314537
Hechtel-Eksel,3940,Maaseik,limbourg,7,flandre,0,26,-1.4955823299782998
Ham,3945,Hasselt,limbourg,7,flandre,0,20,-2.2754232928304647
Bree,3960,Maaseik,limbourg,7,flandre,0,26,-1.7590370745460338
Leopoldsburg,3971,Hasselt,limbourg,7,flandre,0,20,-2.558681414891556
Moeskroen,7712,Tournai et Mouscron,hainaut,6,wallonie,1,6,-2.8728740402270794
Komen-Waasten,7784,Tournai et Mouscron,hainaut,6,wallonie,1,6,-1.8100640308320972
Edingen,7850,Ath,hainaut,6,wallonie,1,9,-2.097867418531015
Zedelgem,8210,Brugge,flandre-occidentale,0,flandre,0,28,-2.4315584983976635
Blankenberge,8370,Brugge,flandre-occidentale,0,flandre,0,28,-2.174059539218678
Zuienkerke,8377,Brugge,flandre-occidentale,0,flandre,0,28,-1.1324749340446754
Brugge,8380,Brugge,flandre-occidentale,0,flandre,0,28,-2.4290513828365876
Middelkerke,8433,Oostende,flandre-occidentale,0,flandre,0,37,-1.6220992740064766
Middelkerke,8434,Oostende,flandre-occidentale,0,flandre,0,37,-1.6220992740064766
Oudenburg,8460,Oostende,flandre-occidentale,0,flandre,0,37,-1.884370288907227
Gistel,8470,Oostende,flandre-occidentale,0,flandre,0,37,-1.9394569364327667
Kortrijk,8510,Courtrai,flandre-occidentale,0,flandre,0,25,-2.721853853563104
Kuurne,8520,Courtrai,flandre-occidentale,0,flandre,0,25,-2.9975543138683074
Harelbeke,8530,Courtrai,flandre-occidentale,0,flandre,0,25,-2.767449526461732
Deerlijk,8540,Courtrai,flandre-occidentale,0,flandre,0,25,-2.7917519709403074
Zwevegem,8553,Courtrai,flandre-occidentale,0,flandre,0,25,-2.2888932328767595
Wevelgem,8560,Courtrai,flandre-occidentale,0,flandre,0,25,-2.6552533478000706
Spiere-Helkijn,8587,Courtrai,flandre-occidentale,0,flandre,0,25,-1.5399023094775601
Diksmuide,8600,Diksmuide,flandre-occidentale,0,flandre,0,34,-1.3708285189787552
Herne,8600,Hal-Vilvorde,brabant-flamand,5,flandre,0,8,-1.7186916784723592
Nieuwpoort,8620,Veurne,flandre-occidentale,0,flandre,0,36,-1.7837003711693418
Veurne,8630,Veurne,flandre-occidentale,0,flandre,0,36,-1.5221826281404887
Houthulst,8650,Diksmuide,flandre-occidentale,0,flandre,0,34,-1.785144178363241
Koksijde,8670,Veurne,flandre-occidentale,0,flandre,0,36,-2.4518414735714886
Alveringem,8690,Veurne,flandre-occidentale,0,flandre,0,36,-1.9691406430588665
Tielt,8700,Tielt,flandre-occidentale,0,flandre,0,40,-2.221132503019645
Dentergem,8720,Tielt,flandre-occidentale,0,flandre,0,40,-2.5195122305756064
Pittem,8740,Tielt,flandre-occidentale,0,flandre,0,40,-2.0653826851312416
Roeselare,8800,Roeselare,flandre-occidentale,0,flandre,0,41,-2.8847177805604707
Lichtervelde,8810,Roeselare,flandre-occidentale,0,flandre,0,41,-2.3602628524480838
Staden,8840,Roeselare,flandre-occidentale,0,flandre,0,41,-2.2393039020898513
Ardooie,8850,Tielt,flandre-occidentale,0,flandre,0,40,-2.306754979887434
Izegem,8870,Roeselare,flandre-occidentale,0,flandre,0,41,-2.960453182520874
Ledegem,8880,Roeselare,flandre-occidentale,0,flandre,0,41,-2.3158946477781783
Moorslede,8890,Roeselare,flandre-occidentale,0,flandre,0,41,-2.261258660188266
Ieper,8900,Ypres,flandre-occidentale,0,flandre,0,27,-2.001825603865199
Ieper,8904,Ypres,flandre-occidentale,0,flandre,0,27,-2.001825603865199
Wervik,8940,Ypres,flandre-occidentale,0,flandre,0,27,-2.2306812160367535
Heuvelland,8950,Ypres,flandre-occidentale,0,flandre,0,27,-1.470630812107972
Poperinge,8970,Ypres,flandre-occidentale,0,flandre,0,27,-1.8027570770654158
Poperinge,8972,Ypres,flandre-occidentale,0,flandre,0,27,-1.8027570770654158
Zonnebeke,8980,Ypres,flandre-occidentale,0,flandre,0,27,-2.0350253227099944
Destelbergen,9070,Gent,flandre-orientale,1,flandre,0,10,-2.8326523392845884
Lochristi,9080,Gent,flandre-orientale,1,flandre,0,10,-2.2552255301363937
Melle,9090,Gent,flandre-orientale,1,flandre,0,10,-2.6545370925010343
Sint-Niklaas,9100,Sint-Niklaas,flandre-orientale,1,flandre,0,38,-2.6292480821096347
Beveren,9120,Sint-Niklaas,flandre-orientale,1,flandre,0,38,-1.7000311037731615
Temse,9140,Sint-Niklaas,flandre-orientale,1,flandre,0,38,-2.5021517274957525
Kruibeke,9150,Sint-Niklaas,flandre-orientale,1,flandre,0,38,-2.0602720533559657
Dendermonde,9200,Dendermonde,flandre-orientale,1,flandre,0,35,-2.5225041422535646
Hamme,9220,Dendermonde,flandre-orientale,1,flandre,0,35,-2.3582654856814935
Wetteren,9230,Dendermonde,flandre-orientale,1,flandre,0,35,-2.5007009207588844
Buggenhout,9255,Dendermonde,flandre-orientale,1,flandre,0,35,-2.5820799799403207
Wichelen,9260,Dendermonde,flandre-orientale,1,flandre,0,35,-2.4508511289611175
Aalst,9308,Aalst,flandre-orientale,1,flandre,0,13,-2.7404329520501327
Aalst,9320,Aalst,flandre-orientale,1,flandre,0,13,-2.7404329520501327
Lede,9340,Aalst,flandre-orientale,1,flandre,0,13,-2.6232842263089906
Ninove,9400,Aalst,flandre-orientale,1,flandre,0,13,-2.3600279365253214
Ninove,9403,Aalst,flandre-orientale,1,flandre,0,13,-2.3600279365253214
Erpe-Mere,9420,Aalst,flandre-orientale,1,flandre,0,13,-2.6057534584025337
Geraardsbergen,9500,Aalst,flandre-orientale,1,flandre,0,13,-2.293136298319906
Sint-Lievens-Houtem,9521,Aalst,flandre-orientale,1,flandre,0,13,-2.5177681987152583
Herzele,9551,Aalst,flandre-orientale,1,flandre,0,13,-2.306656633782776
Herzele,9552,Aalst,flandre-orientale,1,flandre,0,13,-2.306656633782776
Lierde,9570,Audenarde,flandre-orientale,1,flandre,0,19,-2.122495344321107
Zottegem,9620,Aalst,flandre-orientale,1,flandre,0,13,-2.46943743532685
Zwalm,9630,Audenarde,flandre-orientale,1,flandre,0,19,-2.2454144721267086
Brakel,9660,Audenarde,flandre-orientale,1,flandre,0,19,-2.139709409512111
Horebeke,9667,Audenarde,flandre-orientale,1,flandre,0,19,-2.181483640968672
Maarkedal,9680,Audenarde,flandre-orientale,1,flandre,0,19,-1.9795429398793751
Oudenaarde,9700,Audenarde,flandre-orientale,1,flandre,0,19,-2.363005848952066
Kruisem,9750,Audenarde,flandre-orientale,1,flandre,0,19,-2.22066138919391
Wortegem-Petegem,9790,Audenarde,flandre-orientale,1,flandre,0,19,-2.0798841276503093
Deinze,9800,Gent,flandre-orientale,1,flandre,0,10,-2.3270792081535623
Nazareth,9810,Gent,flandre-orientale,1,flandre,0,10,-2.4458674474024265
Merelbeke,9820,Gent,flandre-orientale,1,flandre,0,10,-2.701876005348188
Sint-Martens-Latem,9831,Gent,flandre-orientale,1,flandre,0,10,-3.28788920324037
Deinze,9850,Gent,flandre-orientale,1,flandre,0,10,-2.3270792081535623
Aalter,9880,Gent,flandre-orientale,1,flandre,0,10,-2.098862169304426
Aalter,9910,Gent,flandre-orientale,1,flandre,0,10,-2.098862169304426
Lievegem,9932,Gent,flandre-orientale,1,flandre,0,10,-2.233278146200114
Evergem,9940,Gent,flandre-orientale,1,flandre,0,10,-2.3839995615959437
Sint-Laureins,9980,Eeklo,flandre-orientale,1,flandre,0,42,-1.3603794673916465
Brussel,1020,Bruxelles-Capitale,bruxelles-capitale,3,bruxelles-capitale,2,30,-2.581414936244784
Schaarbeek,1030,Bruxelles-Capitale,bruxelles-capitale,3,bruxelles-capitale,2,30,-3.3851833636158215
Watermaal-Bosvoorde,1170,Bruxelles-Capitale,bruxelles-capitale,3,bruxelles-capitale,2,30,-2.483144131367094
Sint-Lambrechts-Woluwe,1200,Bruxelles-Capitale,bruxelles-capitale,3,bruxelles-capitale,2,30,-3.3959406895913102
Sint-Joost-ten-Node,1210,Bruxelles-Capitale,bruxelles-capitale,3,bruxelles-capitale,2,30,-3.3691998516229487
Herne,1540,Hal-Vilvorde,brabant-flamand,5,flandre,0,8,-1.7186916784723592
Herne,1541,Hal-Vilvorde,brabant-flamand,5,flandre,0,8,-1.7186916784723592
Sint-Pieters-Leeuw,1600,Hal-Vilvorde,brabant-flamand,5,flandre,0,8,-2.3891934194277074
Beersel,1651,Hal-Vilvorde,brabant-flamand,5,flandre,0,8,-2.8513215326091834
Pepingen,1674,Hal-Vilvorde,brabant-flamand,5,flandre,0,8,-1.7585861269883607
Dilbeek,1700,Hal-Vilvorde,brabant-flamand,5,flandre,0,8,-2.8630481610719882
Dilbeek,1701,Hal-Vilvorde,brabant-flamand,5,flandre,0,8,-2.8630481610719882
Dilbeek,1702,Hal-Vilvorde,brabant-flamand,5,flandre,0,8,-2.8630481610719882
Merchtem,1785,Hal-Vilvorde,brabant-flamand,5,flandre,0,8,-2.4589417254490984
Affligem,1790,Hal-Vilvorde,brabant-flamand,5,flandre,0,8,-2.784680604055553
Steenokkerzeel,1820,Hal-Vilvorde,brabant-flamand,5,flandre,0,8,-2.383335798508073
Londerzeel,1840,Hal-Vilvorde,brabant-flamand,5,flandre,0,8,-2.4497426203930988
Grimbergen,1850,Hal-Vilvorde,brabant-flamand,5,flandre,0,8,-2.555973344454642
Zemst,1980,Hal-Vilvorde,brabant-flamand,5,flandre,0,8,-2.5096116991396036
Zemst,1981,Hal-Vilvorde,brabant-flamand,5,flandre,0,8,-2.5096116991396036
Antwerpen,2040,Antwerpen,anvers,2,flandre,0,17,-2.3140252327608355
Antwerpen,2140,Antwerpen,anvers,2,flandre,0,17,-2.3140252327608355
Heist-op-den-Berg,2220,Mechelen,anvers,2,flandre,0,29,-2.6552246229016405
Heist-op-den-Berg,2221,Mechelen,anvers,2,flandre,0,29,-2.6552246229016405
Herselt,2230,Turnhout,anvers,2,flandre,0,22,-2.33850890656568
Hulshout,2235,Turnhout,anvers,2,flandre,0,22,-2.7790836188312293
Westerlo,2260,Turnhout,anvers,2,flandre,0,22,-2.4857408496203686
Grobbendonk,2280,Turnhout,anvers,2,flandre,0,22,-2.433801393862917
Ravels,2381,Turnhout,anvers,2,flandre,0,22,-1.6294118520700032
Malle,2390,Antwerpen,anvers,2,flandre,0,17,-2.137042309444496
Kasterlee,2460,Turnhout,anvers,2,flandre,0,22,-2.124484288466917
Ranst,2520,Antwerpen,anvers,2,flandre,0,17,-2.3572213249290956
Hove,2540,Antwerpen,anvers,2,flandre,0,17,-3.1345771887142204
Duffel,2570,Mechelen,anvers,2,flandre,0,29,-2.6364293763165434
Putte,2580,Mechelen,anvers,2,flandre,0,29,-2.6662124134710234
Aartselaar,2630,Antwerpen,anvers,2,flandre,0,17,-2.9440160593247477
Antwerpen,2660,Antwerpen,anvers,2,flandre,0,17,-2.3140252327608355
Sint-Katelijne-Waver,2860,Mechelen,anvers,2,flandre,0,29,-2.5611314452090475
Kapellen,2950,Antwerpen,anvers,2,flandre,0,17,-3.0537615032172
Brecht,2960,Antwerpen,anvers,2,flandre,0,17,-2.2277731664125398
Leuven,3012,Leuven,brabant-flamand,5,flandre,0,2,-2.8679393659617713
Oud-Heverlee,3052,Leuven,brabant-flamand,5,flandre,0,2,-2.3943938757700405
Aarschot,3202,Leuven,brabant-flamand,5,flandre,0,2,-2.542434858074915
Scherpenheuvel-Zichem,3271,Leuven,brabant-flamand,5,flandre,0,2,-2.5288053420937557
Diest,3290,Leuven,brabant-flamand,5,flandre,0,2,-2.1251155852194663
Hoegaarden,3320,Leuven,brabant-flamand,5,flandre,0,2,-1.6466915590493088
Hoegaarden,3321,Leuven,brabant-flamand,5,flandre,0,2,-1.6466915590493088
Boutersem,3370,Leuven,brabant-flamand,5,flandre,0,2,-2.0753833736556797
Antwerpen,3400,Antwerpen,anvers,2,flandre,0,17,-2.3140252327608355
Landen,3401,Leuven,brabant-flamand,5,flandre,0,2,-1.8368508554064578
Geetbets,3450,Leuven,brabant-flamand,5,flandre,0,2,-1.9306228046092517
Geetbets,3454,Leuven,brabant-flamand,5,flandre,0,2,-1.9306228046092517
Lummen,3560,Hasselt,limbourg,7,flandre,0,20,-2.1421070212132367
Alken,3570,Tongres,limbourg,7,flandre,0,7,-2.505947354422858
Beringen,3582,Hasselt,limbourg,7,flandre,0,20,-2.5995462079535883
Genk,3600,Hasselt,limbourg,7,flandre,0,20,-2.5746933747694247
Dilsen-Stokkem,3650,Maaseik,limbourg,7,flandre,0,26,-2.0281420271955732
Oudsbergen,3660,Maaseik,limbourg,7,flandre,0,26,-1.8274167542706898
Balen,3700,Turnhout,anvers,2,flandre,0,22,-2.358705427046589
Brussel,3700,Bruxelles-Capitale,bruxelles-capitale,3,bruxelles-capitale,2,30,-2.581414936244784
Nieuwpoort,3700,Veurne,flandre-occidentale,0,flandre,0,36,-1.7837003711693418
Voeren,3791,Tongres,limbourg,7,flandre,0,7,-0.9351409747692409
Sint-Truiden,3803,Hasselt,limbourg,7,flandre,0,20,-2.016464139991807
Sint-Truiden,3806,Hasselt,limbourg,7,flandre,0,20,-2.016464139991807
Pelt,3910,Maaseik,limbourg,7,flandre,0,26,-2.2821211732005304
Hechtel-Eksel,3941,Maaseik,limbourg,7,flandre,0,26,-1.4955823299782998
Tessenderlo,3980,Hasselt,limbourg,7,flandre,0,20,-2.2209437043994624
Komen-Waasten,7781,Tournai et Mouscron,hainaut,6,wallonie,1,6,-1.8100640308320972
Komen-Waasten,7782,Tournai et Mouscron,hainaut,6,wallonie,1,6,-1.8100640308320972
Komen-Waasten,7783,Tournai et Mouscron,hainaut,6,wallonie,1,6,-1.8100640308320972
Oostkamp,8020,Brugge,flandre-occidentale,0,flandre,0,28,-2.3205195479593725
Damme,8340,Brugge,flandre-occidentale,0,flandre,0,28,-1.6113773816158763
Oostende,8400,Oostende,flandre-occidentale,0,flandre,0,37,-2.501555833872851
Middelkerke,8430,Oostende,flandre-occidentale,0,flandre,0,37,-1.6220992740064766
Ichtegem,8480,Oostende,flandre-occidentale,0,flandre,0,37,-2.313060034296181
Zwevegem,8550,Courtrai,flandre-occidentale,0,flandre,0,25,-2.2888932328767595
Anzegem,8570,Courtrai,flandre-occidentale,0,flandre,0,25,-2.3983149064460143
Anzegem,8572,Courtrai,flandre-occidentale,0,flandre,0,25,-2.3983149064460143
Avelgem,8580,Courtrai,flandre-occidentale,0,flandre,0,25,-2.408787917237554
Avelgem,8582,Courtrai,flandre-occidentale,0,flandre,0,25,-2.408787917237554
Kortemark,8610,Diksmuide,flandre-occidentale,0,flandre,0,34,-2.181749222875241
Vleteren,8640,Ypres,flandre-occidentale,0,flandre,0,27,-1.7062729536611763
Lo-Reninge,8647,Diksmuide,flandre-occidentale,0,flandre,0,34,-1.498016329056934
De Panne,8660,Veurne,flandre-occidentale,0,flandre,0,36,-2.0057725474178834
Koekelare,8680,Diksmuide,flandre-occidentale,0,flandre,0,34,-2.083595942319068
Alveringem,8691,Veurne,flandre-occidentale,0,flandre,0,36,-1.9691406430588665
Wielsbeke,8710,Tielt,flandre-occidentale,0,flandre,0,40,-2.461553083544317
Beernem,8730,Brugge,flandre-occidentale,0,flandre,0,28,-2.035819331280431
Wingene,8750,Tielt,flandre-occidentale,0,flandre,0,40,-2.130225143831185
Ingelmunster,8770,Roeselare,flandre-occidentale,0,flandre,0,41,-2.7494661086100742
Oostrozebeke,8780,Tielt,flandre-occidentale,0,flandre,0,40,-2.607046480989647
Waregem,8793,Courtrai,flandre-occidentale,0,flandre,0,25,-2.8888252566599966
Hooglede,8830,Roeselare,flandre-occidentale,0,flandre,0,41,-2.2689661171751645
Ieper,8902,Ypres,flandre-occidentale,0,flandre,0,27,-2.001825603865199
Ieper,8908,Ypres,flandre-occidentale,0,flandre,0,27,-2.001825603865199
Menen,8930,Courtrai,flandre-occidentale,0,flandre,0,25,-2.6678050577826466
Heuvelland,8956,Ypres,flandre-occidentale,0,flandre,0,27,-1.470630812107972
Gent,9050,Gent,flandre-orientale,1,flandre,0,10,-2.6573197395842385
Gent,9051,Gent,flandre-orientale,1,flandre,0,10,-2.6573197395842385
Zelzate,9060,Eeklo,flandre-orientale,1,flandre,0,42,-2.559251403527676
Sint-Gillis-Waas,9170,Sint-Niklaas,flandre-orientale,1,flandre,0,38,-2.1976919447601273
Aalst,9310,Aalst,flandre-orientale,1,flandre,0,13,-2.7404329520501327
Ninove,9402,Aalst,flandre-orientale,1,flandre,0,13,-2.3600279365253214
Ninove,9404,Aalst,flandre-orientale,1,flandre,0,13,-2.3600279365253214
Ruiselede,9420,Tielt,flandre-occidentale,0,flandre,0,40,-2.122557112943163
Haaltert,9450,Aalst,flandre-orientale,1,flandre,0,13,-2.625452333651838
Denderleeuw,9470,Aalst,flandre-orientale,1,flandre,0,13,-2.9025385517610043
Sint-Lievens-Houtem,9520,Aalst,flandre-orientale,1,flandre,0,13,-2.5177681987152583
Zwalm,9636,Audenarde,flandre-orientale,1,flandre,0,19,-2.2454144721267086
Riemst,9660,Tongres,limbourg,7,flandre,0,7,-1.9246082362260795
Brakel,9661,Audenarde,flandre-orientale,1,flandre,0,19,-2.139709409512111
Kruisem,9771,Audenarde,flandre-orientale,1,flandre,0,19,-2.22066138919391
Oosterzele,9860,Gent,flandre-orientale,1,flandre,0,10,-2.3466712776307226
Zulte,9870,Gent,flandre-orientale,1,flandre,0,10,-2.643897489976137
Gavere,9890,Gent,flandre-orientale,1,flandre,0,10,-2.423287079368609
Lievegem,9920,Gent,flandre-orientale,1,flandre,0,10,-2.233278146200114
Lievegem,9930,Gent,flandre-orientale,1,flandre,0,10,-2.233278146200114
Lievegem,9950,Gent,flandre-orientale,1,flandre,0,10,-2.233278146200114
Assenede,9960,Eeklo,flandre-orientale,1,flandre,0,42,-1.7513199513167328
Elsene,1050,Bruxelles-Capitale,bruxelles-capitale,3,bruxelles-capitale,2,30,-3.458049905353811
Brussel,1130,Bruxelles-Capitale,bruxelles-capitale,3,bruxelles-capitale,2,30,-2.581414936244784
Sint-Pieters-Woluwe,1150,Bruxelles-Capitale,bruxelles-capitale,3,bruxelles-capitale,2,30,-3.539717582182534
Halle,1500,Hal-Vilvorde,brabant-flamand,5,flandre,0,8,-2.4622502007683056
Halle,1501,Hal-Vilvorde,brabant-flamand,5,flandre,0,8,-2.4622502007683056
Sint-Pieters-Leeuw,1602,Hal-Vilvorde,brabant-flamand,5,flandre,0,8,-2.3891934194277074
Pepingen,1670,Hal-Vilvorde,brabant-flamand,5,flandre,0,8,-1.7585861269883607
Pepingen,1671,Hal-Vilvorde,brabant-flamand,5,flandre,0,8,-1.7585861269883607
Ternat,1740,Hal-Vilvorde,brabant-flamand,5,flandre,0,8,-2.720011867721861
Ternat,1742,Hal-Vilvorde,brabant-flamand,5,flandre,0,8,-2.720011867721861
Opwijk,1745,Hal-Vilvorde,brabant-flamand,5,flandre,0,8,-2.7907579547449854
Hamme,1785,Dendermonde,flandre-orientale,1,flandre,0,35,-2.3582654856814935
Grimbergen,1852,Hal-Vilvorde,brabant-flamand,5,flandre,0,8,-2.555973344454642
Antwerpen,2100,Antwerpen,anvers,2,flandre,0,17,-2.3140252327608355
Heist-op-den-Berg,2222,Mechelen,anvers,2,flandre,0,29,-2.6552246229016405
Zandhoven,2240,Antwerpen,anvers,2,flandre,0,17,-2.376938729710577
Hoogstraten,2320,Turnhout,anvers,2,flandre,0,22,-1.776175427538883
Hoogstraten,2323,Turnhout,anvers,2,flandre,0,22,-1.776175427538883
Beerse,2340,Turnhout,anvers,2,flandre,0,22,-2.4031565004668596
Mol,2400,Turnhout,anvers,2,flandre,0,22,-2.066693408453976
Kontich,2550,Antwerpen,anvers,2,flandre,0,17,-2.669389178892118
Schelle,2627,Antwerpen,anvers,2,flandre,0,17,-2.520510396612238
Edegem,2650,Antwerpen,anvers,2,flandre,0,17,-3.214030543869453
Mechelen,2801,Mechelen,anvers,2,flandre,0,29,-2.4949792889741245
Bornem,2880,Mechelen,anvers,2,flandre,0,29,-2.140915017058798
Puurs-Sint-Amands,2890,Mechelen,anvers,2,flandre,0,29,-2.4136258478742945
Essen,2910,Antwerpen,anvers,2,flandre,0,17,-2.3986701292992576
Zoersel,2980,Antwerpen,anvers,2,flandre,0,17,-2.976813035182174
Wuustwezel,2990,Antwerpen,anvers,2,flandre,0,17,-1.870311353394004
Leuven,3001,Leuven,brabant-flamand,5,flandre,0,2,-2.8679393659617713
Oud-Heverlee,3050,Leuven,brabant-flamand,5,flandre,0,2,-2.3943938757700405
Oud-Heverlee,3054,Leuven,brabant-flamand,5,flandre,0,2,-2.3943938757700405
Bertem,3060,Leuven,brabant-flamand,5,flandre,0,2,-2.1000555115584603
Kortenberg,3071,Leuven,brabant-flamand,5,flandre,0,2,-2.4661285482626414
Tremelo,3128,Leuven,brabant-flamand,5,flandre,0,2,-3.086552079456973
Begijnendijk,3130,Leuven,brabant-flamand,5,flandre,0,2,-2.9207885932370155
Boortmeerbeek,3191,Leuven,brabant-flamand,5,flandre,0,2,-2.853939125069828
Aarschot,3201,Leuven,brabant-flamand,5,flandre,0,2,-2.542434858074915
Lubbeek,3212,Leuven,brabant-flamand,5,flandre,0,2,-2.483941950106021
Scherpenheuvel-Zichem,3270,Leuven,brabant-flamand,5,flandre,0,2,-2.5288053420937557
Scherpenheuvel-Zichem,3272,Leuven,brabant-flamand,5,flandre,0,2,-2.5288053420937557
Diest,3294,Leuven,brabant-flamand,5,flandre,0,2,-2.1251155852194663
Glabbeek,3381,Leuven,brabant-flamand,5,flandre,0,2,-2.1313615312745156
Tielt-Winge,3390,Leuven,brabant-flamand,5,flandre,0,2,-2.2131527567493228
Landen,3404,Leuven,brabant-flamand,5,flandre,0,2,-1.8368508554064578
Kortenaken,3470,Leuven,brabant-flamand,5,flandre,0,2,-1.9062419135888526
Tienen,3470,Leuven,brabant-flamand,5,flandre,0,2,-2.1846795443854767
Hasselt,3500,Hasselt,limbourg,7,flandre,0,20,-2.593938813969217
Zonhoven,3520,Hasselt,limbourg,7,flandre,0,20,-2.688904967911561
Beringen,3581,Hasselt,limbourg,7,flandre,0,20,-2.5995462079535883
Kortessem,3720,Tongres,limbourg,7,flandre,0,7,-2.0055208730404934
Hoeselt,3732,Tongres,limbourg,7,flandre,0,7,-2.225321276113226
Bilzen,3746,Tongres,limbourg,7,flandre,0,7,-2.283690912320083
Voeren,3798,Tongres,limbourg,7,flandre,0,7,-0.9351409747692409
Wellen,3830,Tongres,limbourg,7,flandre,0,7,-2.211780466258014
Wellen,3832,Tongres,limbourg,7,flandre,0,7,-2.211780466258014
Hamont-Achel,3930,Maaseik,limbourg,7,flandre,0,26,-2.201742121713241
Peer,3990,Maaseik,limbourg,7,flandre,0,26,-1.8001338145701533
Komen-Waasten,7780,Tournai et Mouscron,hainaut,6,wallonie,1,6,-1.8100640308320972
Brugge,8200,Brugge,flandre-occidentale,0,flandre,0,28,-2.4290513828365876
Zedelgem,8211,Brugge,flandre-occidentale,0,flandre,0,28,-2.4315584983976635
Knokke-Heist,8300,Brugge,flandre-occidentale,0,flandre,0,28,-2.233018894978993
Knokke-Heist,8301,Brugge,flandre-occidentale,0,flandre,0,28,-2.233018894978993
Brugge,8310,Brugge,flandre-occidentale,0,flandre,0,28,-2.4290513828365876
Middelkerke,8431,Oostende,flandre-occidentale,0,flandre,0,37,-1.6220992740064766
Jabbeke,8490,Brugge,flandre-occidentale,0,flandre,0,28,-2.247079333671857
Kortrijk,8500,Courtrai,flandre-occidentale,0,flandre,0,25,-2.721853853563104
Kortrijk,8501,Courtrai,flandre-occidentale,0,flandre,0,25,-2.721853853563104
Kortrijk,8511,Courtrai,flandre-occidentale,0,flandre,0,25,-2.721853853563104
Zwevegem,8551,Courtrai,flandre-occidentale,0,flandre,0,25,-2.2888932328767595
Zwevegem,8554,Courtrai,flandre-occidentale,0,flandre,0,25,-2.2888932328767595
Avelgem,8581,Courtrai,flandre-occidentale,0,flandre,0,25,-2.408787917237554
Waregem,8790,Courtrai,flandre-occidentale,0,flandre,0,25,-2.8888252566599966
Torhout,8820,Brugge,flandre-occidentale,0,flandre,0,28,-2.5137909047379945
Ardooie,8851,Tielt,flandre-occidentale,0,flandre,0,40,-2.306754979887434
Lendelede,8860,Courtrai,flandre-occidentale,0,flandre,0,25,-2.4659925787104178
Langemark-Poelkapelle,8920,Ypres,flandre-occidentale,0,flandre,0,27,-1.8668245127485636
Heuvelland,8951,Ypres,flandre-occidentale,0,flandre,0,27,-1.470630812107972
Heuvelland,8952,Ypres,flandre-occidentale,0,flandre,0,27,-1.470630812107972
Heuvelland,8953,Ypres,flandre-occidentale,0,flandre,0,27,-1.470630812107972
Gent,9000,Gent,flandre-orientale,1,flandre,0,10,-2.6573197395842385
Gent,9031,Gent,flandre-orientale,1,flandre,0,10,-2.6573197395842385
Gent,9032,Gent,flandre-orientale,1,flandre,0,10,-2.6573197395842385
Beveren,9130,Sint-Niklaas,flandre-orientale,1,flandre,0,38,-1.7000311037731615
Lokeren,9160,Sint-Niklaas,flandre-orientale,1,flandre,0,38,-2.5248239092971634
Moerbeke,9180,Gent,flandre-orientale,1,flandre,0,10,-1.617889428480672
Zele,9240,Dendermonde,flandre-orientale,1,flandre,0,35,-2.3569236645553384
Laarne,9270,Dendermonde,flandre-orientale,1,flandre,0,35,-2.401914138101876
Lebbeke,9280,Dendermonde,flandre-orientale,1,flandre,0,35,-2.5663536850413027
Berlare,9290,Dendermonde,flandre-orientale,1,flandre,0,35,-2.1657983120575905
Ninove,9406,Aalst,flandre-orientale,1,flandre,0,13,-2.3600279365253214
Geraardsbergen,9506,Aalst,flandre-orientale,1,flandre,0,13,-2.293136298319906
Herzele,9550,Aalst,flandre-orientale,1,flandre,0,13,-2.306656633782776
Ronse,9600,Audenarde,flandre-orientale,1,flandre,0,19,-2.5345989227442414
Zottegem,9660,Aalst,flandre-orientale,1,flandre,0,13,-2.46943743532685
Maarkedal,9681,Audenarde,flandre-orientale,1,flandre,0,19,-1.9795429398793751
Kluisbergen,9690,Audenarde,flandre-orientale,1,flandre,0,19,-2.009474673902781
Wortegem-Petegem,9700,Audenarde,flandre-orientale,1,flandre,0,19,-2.0798841276503093
Kruisem,9772,Audenarde,flandre-orientale,1,flandre,0,19,-2.22066138919391
De Pinte,9840,Gent,flandre-orientale,1,flandre,0,10,-2.713018233575635
Aalter,9881,Gent,flandre-orientale,1,flandre,0,10,-2.098862169304426
Eeklo,9900,Eeklo,flandre-orientale,1,flandre,0,42,-2.356462588634553
Assenede,9968,Eeklo,flandre-orientale,1,flandre,0,42,-1.7513199513167328
Sint-Laureins,9988,Eeklo,flandre-orientale,1,flandre,0,42,-1.3603794673916465
Oudergem,1160,Bruxelles-Capitale,bruxelles-capitale,3,bruxelles-capitale,2,30,-2.8728648331308277
Ukkel,1180,Bruxelles-Capitale,bruxelles-capitale,3,bruxelles-capitale,2,30,-3.273242626701166
Vorst,1190,Bruxelles-Capitale,bruxelles-capitale,3,bruxelles-capitale,2,30,-3.010760986110368
Bever,1547,Hal-Vilvorde,brabant-flamand,5,flandre,0,8,-1.5337111270306194
Sint-Genesius-Rode,1640,Hal-Vilvorde,brabant-flamand,5,flandre,0,8,-3.1414176826462286
Beersel,1650,Hal-Vilvorde,brabant-flamand,5,flandre,0,8,-2.8513215326091834
Beersel,1654,Hal-Vilvorde,brabant-flamand,5,flandre,0,8,-2.8513215326091834
Ternat,1741,Hal-Vilvorde,brabant-flamand,5,flandre,0,8,-2.720011867721861
Roosdaal,1761,Hal-Vilvorde,brabant-flamand,5,flandre,0,8,-2.7160425635617407
Vilvoorde,1800,Hal-Vilvorde,brabant-flamand,5,flandre,0,8,-2.6333126340745103
Grimbergen,1851,Hal-Vilvorde,brabant-flamand,5,flandre,0,8,-2.555973344454642
Balen,1910,Turnhout,anvers,2,flandre,0,22,-2.358705427046589
Zaventem,1932,Hal-Vilvorde,brabant-flamand,5,flandre,0,8,-2.612727828309232
Antwerpen,2018,Antwerpen,anvers,2,flandre,0,17,-2.3140252327608355
Antwerpen,2030,Antwerpen,anvers,2,flandre,0,17,-2.3140252327608355
Antwerpen,2060,Antwerpen,anvers,2,flandre,0,17,-2.3140252327608355
Borsbeek,2150,Antwerpen,anvers,2,flandre,0,17,-3.2885891638490863
Antwerpen,2170,Antwerpen,anvers,2,flandre,0,17,-2.3140252327608355
Antwerpen,2223,Antwerpen,anvers,2,flandre,0,17,-2.3140252327608355
Grobbendonk,2288,Turnhout,anvers,2,flandre,0,22,-2.433801393862917
Turnhout,2300,Turnhout,anvers,2,flandre,0,22,-2.1429094708122007
Rijkevorsel,2310,Turnhout,anvers,2,flandre,0,22,-1.9054134971131607
Oud-Turnhout,2360,Turnhout,anvers,2,flandre,0,22,-2.3779161379203315
Ravels,2382,Turnhout,anvers,2,flandre,0,22,-1.6294118520700032
Geel,2440,Turnhout,anvers,2,flandre,0,22,-2.202921042580975
Dessel,2480,Turnhout,anvers,2,flandre,0,22,-2.2442005881881926
Balen,2490,Turnhout,anvers,2,flandre,0,22,-2.358705427046589
Lint,2547,Antwerpen,anvers,2,flandre,0,17,-3.128962685552278
Antwerpen,2610,Antwerpen,anvers,2,flandre,0,17,-2.3140252327608355
Mechelen,2812,Mechelen,anvers,2,flandre,0,29,-2.4949792889741245
Brasschaat,2930,Antwerpen,anvers,2,flandre,0,17,-3.1608638671470084
Leuven,3000,Leuven,brabant-flamand,5,flandre,0,2,-2.8679393659617713
Oud-Heverlee,3051,Leuven,brabant-flamand,5,flandre,0,2,-2.3943938757700405
Oud-Heverlee,3053,Leuven,brabant-flamand,5,flandre,0,2,-2.3943938757700405
Overijse,3090,Hal-Vilvorde,brabant-flamand,5,flandre,0,8,-3.0049061050346726
Rotselaar,3110,Leuven,brabant-flamand,5,flandre,0,2,-2.6162131905760293
Rotselaar,3111,Leuven,brabant-flamand,5,flandre,0,2,-2.6162131905760293
Rotselaar,3118,Leuven,brabant-flamand,5,flandre,0,2,-2.6162131905760293
Lubbeek,3210,Leuven,brabant-flamand,5,flandre,0,2,-2.483941950106021
Bekkevoort,3460,Leuven,brabant-flamand,5,flandre,0,2,-1.8533718129855055
Bekkevoort,3461,Leuven,brabant-flamand,5,flandre,0,2,-1.8533718129855055
Kortenaken,3472,Leuven,brabant-flamand,5,flandre,0,2,-1.9062419135888526
Hasselt,3501,Hasselt,limbourg,7,flandre,0,20,-2.593938813969217
Hasselt,3511,Hasselt,limbourg,7,flandre,0,20,-2.593938813969217
Hasselt,3512,Hasselt,limbourg,7,flandre,0,20,-2.593938813969217
Halen,3545,Hasselt,limbourg,7,flandre,0,20,-1.9709459947488877
Heusden-Zolder,3550,Hasselt,limbourg,7,flandre,0,20,-2.7155213202154864
Beringen,3583,Hasselt,limbourg,7,flandre,0,20,-2.5995462079535883
Diepenbeek,3590,Hasselt,limbourg,7,flandre,0,20,-2.5357246360508143
Lanaken,3621,Tongres,limbourg,7,flandre,0,7,-2.2460863685225854
As,3665,Hasselt,limbourg,7,flandre,0,20,-2.186214723672551
Maaseik,3680,Maaseik,limbourg,7,flandre,0,26,-2.0858184988987865
Nijlen,3840,Mechelen,anvers,2,flandre,0,29,-2.5506537556539666
Pelt,3900,Maaseik,limbourg,7,flandre,0,26,-2.2821211732005304
Bocholt,3950,Maaseik,limbourg,7,flandre,0,26,-1.8985870582949875
Moeskroen,7711,Tournai et Mouscron,hainaut,6,wallonie,1,6,-2.8728740402270794
Vloesberg,7880,Ath,hainaut,6,wallonie,1,9,-1.738454282281861
Brugge,8000,Brugge,flandre-occidentale,0,flandre,0,28,-2.4290513828365876
De Haan,8420,Oostende,flandre-occidentale,0,flandre,0,37,-1.9578914010844213
De Haan,8421,Oostende,flandre-occidentale,0,flandre,0,37,-1.9578914010844213
Middelkerke,8432,Oostende,flandre-occidentale,0,flandre,0,37,-1.6220992740064766
Anzegem,8573,Courtrai,flandre-occidentale,0,flandre,0,25,-2.3983149064460143
Ruiselede,8755,Tielt,flandre-occidentale,0,flandre,0,40,-2.122557112943163
Meulebeke,8760,Tielt,flandre-occidentale,0,flandre,0,40,-2.5106154972437174
Waregem,8791,Courtrai,flandre-occidentale,0,flandre,0,25,-2.8888252566599966
Poperinge,8978,Ypres,flandre-occidentale,0,flandre,0,27,-1.8027570770654158
Gent,9030,Gent,flandre-orientale,1,flandre,0,10,-2.6573197395842385
Gent,9041,Gent,flandre-orientale,1,flandre,0,10,-2.6573197395842385
Gent,9042,Gent,flandre-orientale,1,flandre,0,10,-2.6573197395842385
Moerbeke,9112,Gent,flandre-orientale,1,flandre,0,10,-1.617889428480672
Wachtebeke,9185,Gent,flandre-orientale,1,flandre,0,10,-1.6749404319044083
Stekene,9190,Sint-Niklaas,flandre-orientale,1,flandre,0,38,-2.3198773336131246
Waasmunster,9250,Dendermonde,flandre-orientale,1,flandre,0,35,-2.4585754656813776
Denderleeuw,9472,Aalst,flandre-orientale,1,flandre,0,13,-2.9025385517610043
Moerbeke,9500,Gent,flandre-orientale,1,flandre,0,10,-1.617889428480672
Maarkedal,9688,Audenarde,flandre-orientale,1,flandre,0,19,-1.9795429398793751
Lievegem,9921,Gent,flandre-orientale,1,flandre,0,10,-2.233278146200114
Assenede,9961,Eeklo,flandre-orientale,1,flandre,0,42,-1.7513199513167328
Sint-Laureins,9982,Eeklo,flandre-orientale,1,flandre,0,42,-1.3603794673916465
Maldegem,9990,Eeklo,flandre-orientale,1,flandre,0,42,-2.0755419727263984
Brussel,1000,Bruxelles-Capitale,bruxelles-capitale,3,bruxelles-capitale,2,30,-2.581414936244784
Sint-Agatha-Berchem,1082,Bruxelles-Capitale,bruxelles-capitale,3,bruxelles-capitale,2,30,-3.3375599132776372
Halle,1502,Hal-Vilvorde,brabant-flamand,5,flandre,0,8,-2.4622502007683056
Hoeilaart,1560,Hal-Vilvorde,brabant-flamand,5,flandre,0,8,-2.6798212210181607
Beersel,1653,Hal-Vilvorde,brabant-flamand,5,flandre,0,8,-2.8513215326091834
Dilbeek,1703,Hal-Vilvorde,brabant-flamand,5,flandre,0,8,-2.8630481610719882
Machelen,1830,Hal-Vilvorde,brabant-flamand,5,flandre,0,8,-2.380667701539006
Grimbergen,1853,Hal-Vilvorde,brabant-flamand,5,flandre,0,8,-2.555973344454642
Meise,1861,Hal-Vilvorde,brabant-flamand,5,flandre,0,8,-2.539691056435877
Antwerpen,2020,Antwerpen,anvers,2,flandre,0,17,-2.3140252327608355
Zwijndrecht,2070,Antwerpen,anvers,2,flandre,0,17,-2.1342220214179983
Wijnegem,2110,Antwerpen,anvers,2,flandre,0,17,-2.8231538261776645
Wommelgem,2160,Antwerpen,anvers,2,flandre,0,17,-2.8196498970838393
Olen,2250,Turnhout,anvers,2,flandre,0,22,-2.5644481755942903
Herenthout,2270,Turnhout,anvers,2,flandre,0,22,-2.1614663906754874
Vorselaar,2290,Turnhout,anvers,2,flandre,0,22,-2.0245734544072347
Hoogstraten,2321,Turnhout,anvers,2,flandre,0,22,-1.776175427538883
Hoogstraten,2328,Turnhout,anvers,2,flandre,0,22,-1.776175427538883
Vosselaar,2350,Turnhout,anvers,2,flandre,0,22,-3.0743109327978875
Boechout,2530,Antwerpen,anvers,2,flandre,0,17,-2.4329441630996653
Boechout,2531,Antwerpen,anvers,2,flandre,0,17,-2.4329441630996653
Antwerpen,2600,Antwerpen,anvers,2,flandre,0,17,-2.3140252327608355
Mortsel,2640,Antwerpen,anvers,2,flandre,0,17,-3.1076588505474834
Niel,2845,Antwerpen,anvers,2,flandre,0,17,-2.6433874566847626
Schoten,2900,Antwerpen,anvers,2,flandre,0,17,-3.112322197875105
Leuven,3018,Leuven,brabant-flamand,5,flandre,0,2,-2.8679393659617713
Bertem,3061,Leuven,brabant-flamand,5,flandre,0,2,-2.1000555115584603
Tremelo,3120,Leuven,brabant-flamand,5,flandre,0,2,-3.086552079456973
Keerbergen,3140,Leuven,brabant-flamand,5,flandre,0,2,-3.4114510568382297
Boortmeerbeek,3190,Leuven,brabant-flamand,5,flandre,0,2,-2.853939125069828
Lubbeek,3211,Leuven,brabant-flamand,5,flandre,0,2,-2.483941950106021
Holsbeek,3221,Leuven,brabant-flamand,5,flandre,0,2,-2.2664043012951383
Diest,3293,Leuven,brabant-flamand,5,flandre,0,2,-2.1251155852194663
Kortenaken,3473,Leuven,brabant-flamand,5,flandre,0,2,-1.9062419135888526
Aarschot,3540,Leuven,brabant-flamand,5,flandre,0,2,-2.542434858074915
As,3668,Hasselt,limbourg,7,flandre,0,20,-2.186214723672551
Kortessem,3721,Tongres,limbourg,7,flandre,0,7,-2.0055208730404934
Kortessem,3722,Tongres,limbourg,7,flandre,0,7,-2.0055208730404934
Bilzen,3742,Tongres,limbourg,7,flandre,0,7,-2.283690912320083
Leopoldsburg,3970,Hasselt,limbourg,7,flandre,0,20,-2.558681414891556
Moeskroen,7700,Tournai et Mouscron,hainaut,6,wallonie,1,6,-2.8728740402270794
Bredene,8450,Oostende,flandre-occidentale,0,flandre,0,37,-2.663296501952888
Harelbeke,8531,Courtrai,flandre-occidentale,0,flandre,0,25,-2.767449526461732
Zwevegem,8552,Courtrai,flandre-occidentale,0,flandre,0,25,-2.2888932328767595
Avelgem,8583,Courtrai,flandre-occidentale,0,flandre,0,25,-2.408787917237554
Waregem,8792,Courtrai,flandre-occidentale,0,flandre,0,25,-2.8888252566599966
Ieper,8906,Ypres,flandre-occidentale,0,flandre,0,27,-2.001825603865199
Heuvelland,8954,Ypres,flandre-occidentale,0,flandre,0,27,-1.470630812107972
Mesen,8957,Ypres,flandre-occidentale,0,flandre,0,27,-1.9172826458784642
Heuvelland,8958,Ypres,flandre-occidentale,0,flandre,0,27,-1.470630812107972
Gent,9040,Gent,flandre-orientale,1,flandre,0,10,-2.6573197395842385
Gent,9052,Gent,flandre-orientale,1,flandre,0,10,-2.6573197395842385
Sint-Niklaas,9111,Sint-Niklaas,flandre-orientale,1,flandre,0,38,-2.6292480821096347
Aalst,9300,Aalst,flandre-orientale,1,flandre,0,13,-2.7404329520501327
Ninove,9401,Aalst,flandre-orientale,1,flandre,0,13,-2.3600279365253214
Haaltert,9451,Aalst,flandre-orientale,1,flandre,0,13,-2.625452333651838
Denderleeuw,9473,Aalst,flandre-orientale,1,flandre,0,13,-2.9025385517610043
Zottegem,9520,Aalst,flandre-orientale,1,flandre,0,13,-2.46943743532685
Lierde,9571,Audenarde,flandre-orientale,1,flandre,0,19,-2.122495344321107
Lierde,9572,Audenarde,flandre-orientale,1,flandre,0,19,-2.122495344321107
Kruisem,9770,Audenarde,flandre-orientale,1,flandre,0,19,-2.22066138919391
Sint-Martens-Latem,9830,Gent,flandre-orientale,1,flandre,0,10,-3.28788920324037
Lievegem,9931,Gent,flandre-orientale,1,flandre,0,10,-2.233278146200114
Kaprijke,9970,Eeklo,flandre-orientale,1,flandre,0,42,-2.152156797455978
Kaprijke,9971,Eeklo,flandre-orientale,1,flandre,0,42,-2.152156797455978
Sint-Laureins,9981,Eeklo,flandre-orientale,1,flandre,0,42,-1.3603794673916465
Maldegem,9991,Eeklo,flandre-orientale,1,flandre,0,42,-2.0755419727263984
Maldegem,9992,Eeklo,flandre-orientale,1,flandre,0,42,-2.0755419727263984
Bütgenbach,4750,Verviers,liege,4,wallonie,1,5,-0.5616472874693418
Amel,4770,Verviers,liege,4,wallonie,1,5,-0.4482983142048989
Weismes,4950,Verviers,liege,4,wallonie,1,5,-1.0216072843708939
Kelmis,4728,Verviers,liege,4,wallonie,1,5,-2.2499092598456496
Amel,4771,Verviers,liege,4,wallonie,1,5,-0.4482983142048989
Kelmis,4720,Verviers,liege,4,wallonie,1,5,-2.2499092598456496
Kelmis,4721,Verviers,liege,4,wallonie,1,5,-2.2499092598456496
Büllingen,4760,Verviers,liege,4,wallonie,1,5,-0.39666423881492385
Büllingen,4761,Verviers,liege,4,wallonie,1,5,-0.39666423881492385
Sankt Vith,4784,Verviers,liege,4,wallonie,1,5,-0.6570755402905435
Sankt Vith,4780,Verviers,liege,4,wallonie,1,5,-0.6570755402905435
Sankt Vith,4782,Verviers,liege,4,wallonie,1,5,-0.6570755402905435
Sankt Vith,4783,Verviers,liege,4,wallonie,1,5,-0.6570755402905435
